{"type":"FeatureCollection","name":"facilities","properties":{"synthetic":false,"modeled_attributes":true,"dataset_version":"kurla-mithi-osm-1.0","notice":"Real geography of Kurla / Mithi River, Mumbai (OpenStreetMap + SRTM). Populations, capacities, power links, pumps and resources are MODELED planning assumptions - not official BMC data, not a flood forecast.","license":"Roads, river, facilities and place names (c) OpenStreetMap contributors, ODbL 1.0. Terrain: SRTM 30 m (public domain)."},"features":[{"type":"Feature","id":"H-01","properties":{"id":"H-01","name":"K.B. Bhabha Municipal General Hospital (BMC)","facility_type":"hospital","capacity":300,"operational_status":"operational","power_dependent":true,"backup_power_available":true,"backup_power_hours":24,"power_node_id":"P-04","node_id":"N-051","minimum_accessibility_requirement":20,"criticality_score":1.0,"osm_id":"node/9215480148","capacity_source":"modeled"},"geometry":{"type":"Point","coordinates":[72.878112,19.070846]}},{"type":"Feature","id":"H-02","properties":{"id":"H-02","name":"Kalina Hospital","facility_type":"hospital","capacity":80,"operational_status":"operational","power_dependent":true,"backup_power_available":true,"backup_power_hours":8,"power_node_id":"P-02","node_id":"N-021","minimum_accessibility_requirement":20,"criticality_score":0.8,"osm_id":"node/7225067112","capacity_source":"modeled"},"geometry":{"type":"Point","coordinates":[72.86302,19.078004]}},{"type":"Feature","id":"H-03","properties":{"id":"H-03","name":"Kurla Municipal Hospital","facility_type":"hospital","capacity":60,"operational_status":"operational","power_dependent":true,"backup_power_available":false,"backup_power_hours":0,"power_node_id":"P-03","node_id":"N-011","minimum_accessibility_requirement":20,"criticality_score":0.7,"osm_id":"node/4996322798","capacity_source":"modeled"},"geometry":{"type":"Point","coordinates":[72.883116,19.081508]}},{"type":"Feature","id":"H-04","properties":{"id":"H-04","name":"CritiCare Asia Hospital, Kurla","facility_type":"hospital","capacity":150,"operational_status":"operational","power_dependent":true,"backup_power_available":true,"backup_power_hours":12,"power_node_id":"P-01","node_id":"N-023","minimum_accessibility_requirement":20,"criticality_score":0.9,"osm_id":"way/260786332","capacity_source":"modeled"},"geometry":{"type":"Point","coordinates":[72.886137,19.076011]}},{"type":"Feature","id":"S-01","properties":{"id":"S-01","name":"Holy Cross Church hall (Kurla Christian Village)","facility_type":"shelter","capacity":400,"operational_status":"operational","power_dependent":false,"backup_power_available":false,"backup_power_hours":0,"power_node_id":null,"node_id":"N-011","minimum_accessibility_requirement":25,"criticality_score":0.6,"osm_id":"way/510975324","capacity_source":"modeled"},"geometry":{"type":"Point","coordinates":[72.887162,19.083347]}},{"type":"Feature","id":"S-02","properties":{"id":"S-02","name":"Our Lady of Egypt Church hall, Kalina","facility_type":"shelter","capacity":300,"operational_status":"operational","power_dependent":false,"backup_power_available":false,"backup_power_hours":0,"power_node_id":null,"node_id":"N-014","minimum_accessibility_requirement":25,"criticality_score":0.6,"osm_id":"way/779260411","capacity_source":"modeled"},"geometry":{"type":"Point","coordinates":[72.869214,19.078402]}},{"type":"Feature","id":"S-03","properties":{"id":"S-03","name":"Tilak Nagar Municipal School","facility_type":"shelter","capacity":500,"operational_status":"operational","power_dependent":true,"backup_power_available":false,"backup_power_hours":0,"power_node_id":"P-03","node_id":"N-056","minimum_accessibility_requirement":25,"criticality_score":0.7,"osm_id":"way/626376017","capacity_source":"modeled"},"geometry":{"type":"Point","coordinates":[72.894424,19.06736]}},{"type":"Feature","id":"S-04","properties":{"id":"S-04","name":"Kohinoor Educational Complex","facility_type":"shelter","capacity":450,"operational_status":"operational","power_dependent":false,"backup_power_available":false,"backup_power_hours":0,"power_node_id":null,"node_id":"N-029","minimum_accessibility_requirement":25,"criticality_score":0.5,"osm_id":"way/260786330","capacity_source":"modeled"},"geometry":{"type":"Point","coordinates":[72.886526,19.075432]}},{"type":"Feature","id":"S-05","properties":{"id":"S-05","name":"Orchids The International School, Kurla","facility_type":"shelter","capacity":350,"operational_status":"operational","power_dependent":false,"backup_power_available":false,"backup_power_hours":0,"power_node_id":null,"node_id":"N-066","minimum_accessibility_requirement":25,"criticality_score":0.5,"osm_id":"node/7896696885","capacity_source":"modeled"},"geometry":{"type":"Point","coordinates":[72.879118,19.06784]}},{"type":"Feature","id":"S-06","properties":{"id":"S-06","name":"Shree Swami Samartha Math","facility_type":"shelter","capacity":200,"operational_status":"operational","power_dependent":true,"backup_power_available":true,"backup_power_hours":10,"power_node_id":"P-04","node_id":"N-079","minimum_accessibility_requirement":25,"criticality_score":0.5,"osm_id":"way/289851995","capacity_source":"modeled"},"geometry":{"type":"Point","coordinates":[72.884389,19.063594]}},{"type":"Feature","id":"W-01","properties":{"id":"W-01","name":"Water point - Fatima High School","facility_type":"water","capacity":1500,"operational_status":"operational","power_dependent":false,"backup_power_available":false,"backup_power_hours":0,"power_node_id":null,"node_id":"N-013","minimum_accessibility_requirement":15,"criticality_score":0.5,"osm_id":"way/427240536","capacity_source":"modeled"},"geometry":{"type":"Point","coordinates":[72.898548,19.082869]}},{"type":"Feature","id":"W-02","properties":{"id":"W-02","name":"Water point - Kalina (Our Lady of Egypt)","facility_type":"water","capacity":1800,"operational_status":"operational","power_dependent":true,"backup_power_available":false,"backup_power_hours":0,"power_node_id":"P-02","node_id":"N-014","minimum_accessibility_requirement":15,"criticality_score":0.55,"osm_id":"way/779260411","capacity_source":"modeled"},"geometry":{"type":"Point","coordinates":[72.869214,19.078402]}},{"type":"Feature","id":"W-03","properties":{"id":"W-03","name":"Water point - Bail Bazar (Rehmaniya Masjid)","facility_type":"water","capacity":2200,"operational_status":"operational","power_dependent":true,"backup_power_available":true,"backup_power_hours":12,"power_node_id":"P-01","node_id":"N-016","minimum_accessibility_requirement":15,"criticality_score":0.6,"osm_id":"node/3289566679","capacity_source":"modeled"},"geometry":{"type":"Point","coordinates":[72.88302,19.078898]}},{"type":"Feature","id":"W-04","properties":{"id":"W-04","name":"Water point - Tilak Nagar","facility_type":"water","capacity":1500,"operational_status":"operational","power_dependent":true,"backup_power_available":false,"backup_power_hours":0,"power_node_id":"P-03","node_id":"N-076","minimum_accessibility_requirement":15,"criticality_score":0.5,"osm_id":"way/626376015","capacity_source":"modeled"},"geometry":{"type":"Point","coordinates":[72.895243,19.065531]}},{"type":"Feature","id":"W-05","properties":{"id":"W-05","name":"Water point - Kurla West (Balaji Mandir)","facility_type":"water","capacity":1400,"operational_status":"operational","power_dependent":false,"backup_power_available":false,"backup_power_hours":0,"power_node_id":null,"node_id":"N-075","minimum_accessibility_requirement":15,"criticality_score":0.5,"osm_id":"way/353997299","capacity_source":"modeled"},"geometry":{"type":"Point","coordinates":[72.880074,19.066565]}},{"type":"Feature","id":"W-06","properties":{"id":"W-06","name":"Water point - Kismat Nagar (Umar Masjid)","facility_type":"water","capacity":1200,"operational_status":"operational","power_dependent":false,"backup_power_available":false,"backup_power_hours":0,"power_node_id":null,"node_id":"N-033","minimum_accessibility_requirement":15,"criticality_score":0.45,"osm_id":"node/3289573514","capacity_source":"modeled"},"geometry":{"type":"Point","coordinates":[72.870959,19.075803]}},{"type":"Feature","id":"E-01","properties":{"id":"E-01","name":"Kurla Fire Station (Agnishaman Kendra)","facility_type":"emergency","capacity":30,"operational_status":"operational","power_dependent":false,"backup_power_available":false,"backup_power_hours":0,"power_node_id":null,"node_id":"N-006","minimum_accessibility_requirement":15,"criticality_score":0.8,"osm_id":"way/353174234","capacity_source":"modeled"},"geometry":{"type":"Point","coordinates":[72.885935,19.08443]}},{"type":"Feature","id":"E-02","properties":{"id":"E-02","name":"VB Nagar Police Station","facility_type":"emergency","capacity":25,"operational_status":"operational","power_dependent":true,"backup_power_available":true,"backup_power_hours":12,"power_node_id":"P-01","node_id":"N-039","minimum_accessibility_requirement":15,"criticality_score":0.6,"osm_id":"node/2933183452","capacity_source":"modeled"},"geometry":{"type":"Point","coordinates":[72.884227,19.071717]}},{"type":"Feature","id":"E-03","properties":{"id":"E-03","name":"Tilak Nagar Police Station","facility_type":"emergency","capacity":20,"operational_status":"operational","power_dependent":true,"backup_power_available":true,"backup_power_hours":12,"power_node_id":"P-03","node_id":"N-077","minimum_accessibility_requirement":15,"criticality_score":0.85,"osm_id":"node/2930732807","capacity_source":"modeled"},"geometry":{"type":"Point","coordinates":[72.895998,19.065286]}},{"type":"Feature","id":"E-04","properties":{"id":"E-04","name":"Bail Bazar Police Station","facility_type":"emergency","capacity":40,"operational_status":"operational","power_dependent":true,"backup_power_available":true,"backup_power_hours":24,"power_node_id":"P-02","node_id":"N-004","minimum_accessibility_requirement":15,"criticality_score":0.9,"osm_id":"way/353192704","capacity_source":"modeled"},"geometry":{"type":"Point","coordinates":[72.881064,19.085294]}},{"type":"Feature","id":"E-05","properties":{"id":"E-05","name":"Nehru Nagar Kurla E Police Chowky","facility_type":"emergency","capacity":35,"operational_status":"operational","power_dependent":false,"backup_power_available":false,"backup_power_hours":0,"power_node_id":null,"node_id":"N-075","minimum_accessibility_requirement":15,"criticality_score":0.7,"osm_id":"node/3532121099","capacity_source":"modeled"},"geometry":{"type":"Point","coordinates":[72.880875,19.065066]}},{"type":"Feature","id":"SC-01","properties":{"id":"SC-01","name":"Fatima High School","facility_type":"school","capacity":450,"operational_status":"operational","power_dependent":false,"backup_power_available":false,"backup_power_hours":0,"power_node_id":null,"node_id":"N-013","minimum_accessibility_requirement":30,"criticality_score":0.3,"osm_id":"way/427240536","capacity_source":"modeled"},"geometry":{"type":"Point","coordinates":[72.898548,19.082869]}},{"type":"Feature","id":"SC-02","properties":{"id":"SC-02","name":"Adarsha Vidyalaya","facility_type":"school","capacity":700,"operational_status":"operational","power_dependent":false,"backup_power_available":false,"backup_power_hours":0,"power_node_id":null,"node_id":"N-071","minimum_accessibility_requirement":30,"criticality_score":0.3,"osm_id":"way/427200308","capacity_source":"modeled"},"geometry":{"type":"Point","coordinates":[72.889807,19.063015]}},{"type":"Feature","id":"SC-03","properties":{"id":"SC-03","name":"Dhirubhai Ambani International School","facility_type":"school","capacity":400,"operational_status":"operational","power_dependent":false,"backup_power_available":false,"backup_power_hours":0,"power_node_id":null,"node_id":"N-061","minimum_accessibility_requirement":30,"criticality_score":0.3,"osm_id":"way/430420073","capacity_source":"modeled"},"geometry":{"type":"Point","coordinates":[72.870962,19.066606]}},{"type":"Feature","id":"SC-04","properties":{"id":"SC-04","name":"BMC Municipal School, Tilak Nagar","facility_type":"school","capacity":800,"operational_status":"operational","power_dependent":false,"backup_power_available":false,"backup_power_hours":0,"power_node_id":null,"node_id":"N-071","minimum_accessibility_requirement":30,"criticality_score":0.3,"osm_id":"way/427200309","capacity_source":"modeled"},"geometry":{"type":"Point","coordinates":[72.890241,19.063658]}},{"type":"Feature","id":"SC-05","properties":{"id":"SC-05","name":"Chembur Vidya Niketan High School","facility_type":"school","capacity":500,"operational_status":"operational","power_dependent":false,"backup_power_available":false,"backup_power_hours":0,"power_node_id":null,"node_id":"N-096","minimum_accessibility_requirement":30,"criticality_score":0.3,"osm_id":"way/518957680","capacity_source":"modeled"},"geometry":{"type":"Point","coordinates":[72.895874,19.061243]}},{"type":"Feature","id":"SC-06","properties":{"id":"SC-06","name":"Lokmaniya Tilak Jr School","facility_type":"school","capacity":380,"operational_status":"operational","power_dependent":false,"backup_power_available":false,"backup_power_hours":0,"power_node_id":null,"node_id":"N-076","minimum_accessibility_requirement":30,"criticality_score":0.3,"osm_id":"way/626376016","capacity_source":"modeled"},"geometry":{"type":"Point","coordinates":[72.894963,19.066315]}},{"type":"Feature","id":"SC-07","properties":{"id":"SC-07","name":"Holy Cross High School, Kurla","facility_type":"school","capacity":420,"operational_status":"operational","power_dependent":false,"backup_power_available":false,"backup_power_hours":0,"power_node_id":null,"node_id":"N-011","minimum_accessibility_requirement":30,"criticality_score":0.3,"osm_id":"way/510983346","capacity_source":"modeled"},"geometry":{"type":"Point","coordinates":[72.88604,19.082622]}},{"type":"Feature","id":"SC-08","properties":{"id":"SC-08","name":"American School of Bombay","facility_type":"school","capacity":350,"operational_status":"operational","power_dependent":false,"backup_power_available":false,"backup_power_hours":0,"power_node_id":null,"node_id":"N-061","minimum_accessibility_requirement":30,"criticality_score":0.3,"osm_id":"node/4185780309","capacity_source":"modeled"},"geometry":{"type":"Point","coordinates":[72.870696,19.067664]}}]}