{"type":"FeatureCollection","name":"hazard_zones","properties":{"synthetic":false,"modeled_attributes":true,"dataset_version":"kurla-mithi-osm-1.0","notice":"Real geography of Kurla / Mithi River, Mumbai (OpenStreetMap + SRTM). Populations, capacities, power links, pumps and resources are MODELED planning assumptions - not official BMC data, not a flood forecast.","license":"Roads, river, facilities and place names (c) OpenStreetMap contributors, ODbL 1.0. Terrain: SRTM 30 m (public domain)."},"features":[{"type":"Feature","id":"HZ-01","properties":{"id":"HZ-01","name":"Kranti Nagar / Mithi bank (CST Road)","susceptibility_score":0.877,"estimated_water_accumulation":0.789,"drainage_effectiveness":0.5,"exposure_factor":1.0,"center":[72.8735,19.0725],"center_grid":[72.8735,19.0725],"radii_grid":[0.004942534296242095,0.0034376696218563416]},"geometry":{"type":"Polygon","coordinates":[[[72.878443,19.0725],[72.878319,19.073265],[72.877953,19.073992],[72.877364,19.074643],[72.876582,19.075188],[72.875644,19.075597],[72.8746,19.075851],[72.8735,19.075938],[72.8724,19.075851],[72.871356,19.075597],[72.870418,19.075188],[72.869636,19.074643],[72.869047,19.073992],[72.868681,19.073265],[72.868557,19.0725],[72.868681,19.071735],[72.869047,19.071008],[72.869636,19.070357],[72.870418,19.069812],[72.871356,19.069403],[72.8724,19.069149],[72.8735,19.069062],[72.8746,19.069149],[72.875644,19.069403],[72.876582,19.069812],[72.877364,19.070357],[72.877953,19.071008],[72.878319,19.071735],[72.878443,19.0725]]]}},{"type":"Feature","id":"HZ-02","properties":{"id":"HZ-02","name":"Kismat Nagar - Bail Bazar Mithi bend","susceptibility_score":0.963,"estimated_water_accumulation":0.867,"drainage_effectiveness":0.5,"exposure_factor":1.0,"center":[72.877,19.079],"center_grid":[72.877,19.079],"radii_grid":[0.0045625183370785055,0.0032567396417586395]},"geometry":{"type":"Polygon","coordinates":[[[72.881563,19.079],[72.881448,19.079725],[72.881111,19.080413],[72.880567,19.081031],[72.879845,19.081546],[72.87898,19.081934],[72.878015,19.082175],[72.877,19.082257],[72.875985,19.082175],[72.87502,19.081934],[72.874155,19.081546],[72.873433,19.081031],[72.872889,19.080413],[72.872552,19.079725],[72.872437,19.079],[72.872552,19.078275],[72.872889,19.077587],[72.873433,19.076969],[72.874155,19.076454],[72.87502,19.076066],[72.875985,19.075825],[72.877,19.075743],[72.878015,19.075825],[72.87898,19.076066],[72.879845,19.076454],[72.880567,19.076969],[72.881111,19.077587],[72.881448,19.078275],[72.881563,19.079]]]}},{"type":"Feature","id":"HZ-03","properties":{"id":"HZ-03","name":"Kalina - Vakola nala low ground","susceptibility_score":0.408,"estimated_water_accumulation":0.367,"drainage_effectiveness":0.55,"exposure_factor":0.95,"center":[72.8665,19.077],"center_grid":[72.8665,19.077],"radii_grid":[0.004277309302966354,0.0029853446716120863]},"geometry":{"type":"Polygon","coordinates":[[[72.870777,19.077],[72.87067,19.077664],[72.870354,19.078295],[72.869844,19.078861],[72.869167,19.079334],[72.868356,19.07969],[72.867452,19.07991],[72.8665,19.079985],[72.865548,19.07991],[72.864644,19.07969],[72.863833,19.079334],[72.863156,19.078861],[72.862646,19.078295],[72.86233,19.077664],[72.862223,19.077],[72.86233,19.076336],[72.862646,19.075705],[72.863156,19.075139],[72.863833,19.074666],[72.864644,19.07431],[72.865548,19.07409],[72.8665,19.074015],[72.867452,19.07409],[72.868356,19.07431],[72.869167,19.074666],[72.869844,19.075139],[72.870354,19.075705],[72.87067,19.076336],[72.870777,19.077]]]}},{"type":"Feature","id":"HZ-04","properties":{"id":"HZ-04","name":"Kurla station subway & LBS Marg dip","susceptibility_score":0.597,"estimated_water_accumulation":0.537,"drainage_effectiveness":0.55,"exposure_factor":0.9,"center":[72.8805,19.066],"center_grid":[72.8805,19.066],"radii_grid":[0.003991890381877914,0.002713949701465533]},"geometry":{"type":"Polygon","coordinates":[[[72.884492,19.066],[72.884392,19.066604],[72.884097,19.067178],[72.883621,19.067692],[72.882989,19.068122],[72.882232,19.068445],[72.881388,19.068646],[72.8805,19.068714],[72.879612,19.068646],[72.878768,19.068445],[72.878011,19.068122],[72.877379,19.067692],[72.876903,19.067178],[72.876608,19.066604],[72.876508,19.066],[72.876608,19.065396],[72.876903,19.064822],[72.877379,19.064308],[72.878011,19.063878],[72.878768,19.063555],[72.879612,19.063354],[72.8805,19.063286],[72.881388,19.063354],[72.882232,19.063555],[72.882989,19.063878],[72.883621,19.064308],[72.884097,19.064822],[72.884392,19.065396],[72.884492,19.066]]]}},{"type":"Feature","id":"HZ-05","properties":{"id":"HZ-05","name":"Jarimari - airport boundary drain","susceptibility_score":0.442,"estimated_water_accumulation":0.398,"drainage_effectiveness":0.45,"exposure_factor":1.0,"center":[72.881,19.0875],"center_grid":[72.881,19.0875],"radii_grid":[0.0039924084431106335,0.002894879681563235]},"geometry":{"type":"Polygon","coordinates":[[[72.884992,19.0875],[72.884892,19.088144],[72.884597,19.088756],[72.884121,19.089305],[72.883489,19.089763],[72.882732,19.090108],[72.881888,19.090322],[72.881,19.090395],[72.880112,19.090322],[72.879268,19.090108],[72.878511,19.089763],[72.877879,19.089305],[72.877403,19.088756],[72.877108,19.088144],[72.877008,19.0875],[72.877108,19.086856],[72.877403,19.086244],[72.877879,19.085695],[72.878511,19.085237],[72.879268,19.084892],[72.880112,19.084678],[72.881,19.084605],[72.881888,19.084678],[72.882732,19.084892],[72.883489,19.085237],[72.884121,19.085695],[72.884597,19.086244],[72.884892,19.086856],[72.884992,19.0875]]]}},{"type":"Feature","id":"HZ-06","properties":{"id":"HZ-06","name":"Tilak Nagar - SCLR underpass","susceptibility_score":0.559,"estimated_water_accumulation":0.503,"drainage_effectiveness":0.5,"exposure_factor":0.85,"center":[72.8925,19.0655],"center_grid":[72.8925,19.0655],"radii_grid":[0.0036116994524934974,0.0025330197213678306]},"geometry":{"type":"Polygon","coordinates":[[[72.896112,19.0655],[72.896021,19.066064],[72.895754,19.066599],[72.895324,19.067079],[72.894752,19.06748],[72.894067,19.067782],[72.893304,19.06797],[72.8925,19.068033],[72.891696,19.06797],[72.890933,19.067782],[72.890248,19.06748],[72.889676,19.067079],[72.889246,19.066599],[72.888979,19.066064],[72.888888,19.0655],[72.888979,19.064936],[72.889246,19.064401],[72.889676,19.063921],[72.890248,19.06352],[72.890933,19.063218],[72.891696,19.06303],[72.8925,19.062967],[72.893304,19.06303],[72.894067,19.063218],[72.894752,19.06352],[72.895324,19.063921],[72.895754,19.064401],[72.896021,19.064936],[72.896112,19.0655]]]}}]}