{"type":"FeatureCollection","name":"infrastructure","properties":{"synthetic":true,"dataset_version":"sahyadri-synthetic-1.0","notice":"Synthetic demonstration data. Not official or real."},"features":[{"type":"Feature","id":"P-01","properties":{"id":"P-01","infra_type":"power","name":"Central Substation","kind":"substation","node_id":"N-34","elevation_proxy":0.384,"flood_susceptibility":0.709,"backup_power_available":false},"geometry":{"type":"Point","coordinates":[73.44284,18.74772]}},{"type":"Feature","id":"P-02","properties":{"id":"P-02","infra_type":"power","name":"Riverside Substation","kind":"substation","node_id":"N-42","elevation_proxy":0.372,"flood_susceptibility":0.723,"backup_power_available":false},"geometry":{"type":"Point","coordinates":[73.42184,18.75672]}},{"type":"Feature","id":"P-03","properties":{"id":"P-03","infra_type":"power","name":"Eastgate Transformer","kind":"transformer","node_id":"N-27","elevation_proxy":0.226,"flood_susceptibility":0.89,"backup_power_available":false},"geometry":{"type":"Point","coordinates":[73.47434,18.73872]}},{"type":"Feature","id":"P-04","properties":{"id":"P-04","infra_type":"power","name":"Hillview Transformer","kind":"transformer","node_id":"N-56","elevation_proxy":0.619,"flood_susceptibility":0.439,"backup_power_available":false},"geometry":{"type":"Point","coordinates":[73.46384,18.76572]}},{"type":"Feature","id":"D-01","properties":{"id":"D-01","infra_type":"drainage","name":"Riverside Pump Station","power_node_id":"P-02","backup_power_available":false,"effectiveness_radius_m":1700.0,"drainage_boost":0.35},"geometry":{"type":"Point","coordinates":[73.421,18.7596]}},{"type":"Feature","id":"D-02","properties":{"id":"D-02","infra_type":"drainage","name":"Old Town Pump Station","power_node_id":"P-01","backup_power_available":true,"effectiveness_radius_m":1700.0,"drainage_boost":0.35},"geometry":{"type":"Point","coordinates":[73.4357,18.7515]}},{"type":"Feature","id":"D-03","properties":{"id":"D-03","infra_type":"drainage","name":"Canal Sluice Pump","power_node_id":"P-03","backup_power_available":false,"effectiveness_radius_m":1700.0,"drainage_boost":0.35},"geometry":{"type":"Point","coordinates":[73.4588,18.7443]}},{"type":"Feature","id":"D-04","properties":{"id":"D-04","infra_type":"drainage","name":"Lake Basin Pump","power_node_id":"P-02","backup_power_available":false,"effectiveness_radius_m":1700.0,"drainage_boost":0.35},"geometry":{"type":"Point","coordinates":[73.41575,18.7335]}},{"type":"Feature","id":"D-05","properties":{"id":"D-05","infra_type":"drainage","name":"Hillview Drain Pump","power_node_id":"P-04","backup_power_available":false,"effectiveness_radius_m":1700.0,"drainage_boost":0.35},"geometry":{"type":"Point","coordinates":[73.4651,18.765]}},{"type":"Feature","id":"D-06","properties":{"id":"D-06","infra_type":"drainage","name":"Eastgate Storm Drain","power_node_id":"P-03","backup_power_available":false,"effectiveness_radius_m":1700.0,"drainage_boost":0.35},"geometry":{"type":"Point","coordinates":[73.4777,18.7362]}}]}