{"type":"FeatureCollection","name":"nodes","properties":{"synthetic":true,"dataset_version":"sahyadri-synthetic-1.0","notice":"Synthetic demonstration data. Not official or real."},"features":[{"type":"Feature","id":"N-00","properties":{"id":"N-00","name":"N-00","is_major":false,"grid":[0,0]},"geometry":{"type":"Point","coordinates":[73.4,18.72]}},{"type":"Feature","id":"N-01","properties":{"id":"N-01","name":"N-01","is_major":false,"grid":[0,1]},"geometry":{"type":"Point","coordinates":[73.409646,18.72]}},{"type":"Feature","id":"N-02","properties":{"id":"N-02","name":"N-02","is_major":false,"grid":[0,2]},"geometry":{"type":"Point","coordinates":[73.420097,18.72]}},{"type":"Feature","id":"N-03","properties":{"id":"N-03","name":"N-03","is_major":false,"grid":[0,3]},"geometry":{"type":"Point","coordinates":[73.432546,18.72]}},{"type":"Feature","id":"N-04","properties":{"id":"N-04","name":"South Gate","is_major":true,"grid":[0,4]},"geometry":{"type":"Point","coordinates":[73.441674,18.72]}},{"type":"Feature","id":"N-05","properties":{"id":"N-05","name":"N-05","is_major":false,"grid":[0,5]},"geometry":{"type":"Point","coordinates":[73.453005,18.72]}},{"type":"Feature","id":"N-06","properties":{"id":"N-06","name":"N-06","is_major":false,"grid":[0,6]},"geometry":{"type":"Point","coordinates":[73.464035,18.72]}},{"type":"Feature","id":"N-07","properties":{"id":"N-07","name":"N-07","is_major":false,"grid":[0,7]},"geometry":{"type":"Point","coordinates":[73.47388,18.72]}},{"type":"Feature","id":"N-08","properties":{"id":"N-08","name":"N-08","is_major":false,"grid":[0,8]},"geometry":{"type":"Point","coordinates":[73.484,18.72]}},{"type":"Feature","id":"N-10","properties":{"id":"N-10","name":"N-10","is_major":false,"grid":[1,0]},"geometry":{"type":"Point","coordinates":[73.4,18.728997]}},{"type":"Feature","id":"N-11","properties":{"id":"N-11","name":"N-11","is_major":false,"grid":[1,1]},"geometry":{"type":"Point","coordinates":[73.409926,18.729235]}},{"type":"Feature","id":"N-12","properties":{"id":"N-12","name":"Lake Road Junction","is_major":true,"grid":[1,2]},"geometry":{"type":"Point","coordinates":[73.421917,18.729858]}},{"type":"Feature","id":"N-13","properties":{"id":"N-13","name":"N-13","is_major":false,"grid":[1,3]},"geometry":{"type":"Point","coordinates":[73.432163,18.727949]}},{"type":"Feature","id":"N-14","properties":{"id":"N-14","name":"North Market Junction","is_major":true,"grid":[1,4]},"geometry":{"type":"Point","coordinates":[73.442952,18.728892]}},{"type":"Feature","id":"N-15","properties":{"id":"N-15","name":"N-15","is_major":false,"grid":[1,5]},"geometry":{"type":"Point","coordinates":[73.451764,18.728737]}},{"type":"Feature","id":"N-16","properties":{"id":"N-16","name":"Canal Junction","is_major":true,"grid":[1,6]},"geometry":{"type":"Point","coordinates":[73.46195,18.72929]}},{"type":"Feature","id":"N-17","properties":{"id":"N-17","name":"N-17","is_major":false,"grid":[1,7]},"geometry":{"type":"Point","coordinates":[73.47228,18.728383]}},{"type":"Feature","id":"N-18","properties":{"id":"N-18","name":"N-18","is_major":false,"grid":[1,8]},"geometry":{"type":"Point","coordinates":[73.484,18.728156]}},{"type":"Feature","id":"N-20","properties":{"id":"N-20","name":"N-20","is_major":false,"grid":[2,0]},"geometry":{"type":"Point","coordinates":[73.4,18.738846]}},{"type":"Feature","id":"N-21","properties":{"id":"N-21","name":"N-21","is_major":false,"grid":[2,1]},"geometry":{"type":"Point","coordinates":[73.409563,18.737083]}},{"type":"Feature","id":"N-22","properties":{"id":"N-22","name":"N-22","is_major":false,"grid":[2,2]},"geometry":{"type":"Point","coordinates":[73.421493,18.73891]}},{"type":"Feature","id":"N-23","properties":{"id":"N-23","name":"N-23","is_major":false,"grid":[2,3]},"geometry":{"type":"Point","coordinates":[73.430601,18.737901]}},{"type":"Feature","id":"N-24","properties":{"id":"N-24","name":"N-24","is_major":false,"grid":[2,4]},"geometry":{"type":"Point","coordinates":[73.441396,18.737624]}},{"type":"Feature","id":"N-25","properties":{"id":"N-25","name":"N-25","is_major":false,"grid":[2,5]},"geometry":{"type":"Point","coordinates":[73.452733,18.737437]}},{"type":"Feature","id":"N-26","properties":{"id":"N-26","name":"N-26","is_major":false,"grid":[2,6]},"geometry":{"type":"Point","coordinates":[73.463796,18.737766]}},{"type":"Feature","id":"N-27","properties":{"id":"N-27","name":"N-27","is_major":false,"grid":[2,7]},"geometry":{"type":"Point","coordinates":[73.472712,18.738802]}},{"type":"Feature","id":"N-28","properties":{"id":"N-28","name":"N-28","is_major":false,"grid":[2,8]},"geometry":{"type":"Point","coordinates":[73.484,18.737342]}},{"type":"Feature","id":"N-30","properties":{"id":"N-30","name":"West Gate","is_major":true,"grid":[3,0]},"geometry":{"type":"Point","coordinates":[73.4,18.747664]}},{"type":"Feature","id":"N-31","properties":{"id":"N-31","name":"N-31","is_major":false,"grid":[3,1]},"geometry":{"type":"Point","coordinates":[73.411685,18.74641]}},{"type":"Feature","id":"N-32","properties":{"id":"N-32","name":"Riverside Junction","is_major":true,"grid":[3,2]},"geometry":{"type":"Point","coordinates":[73.420618,18.745938]}},{"type":"Feature","id":"N-33","properties":{"id":"N-33","name":"N-33","is_major":false,"grid":[3,3]},"geometry":{"type":"Point","coordinates":[73.430881,18.747844]}},{"type":"Feature","id":"N-34","properties":{"id":"N-34","name":"Central Chowk","is_major":true,"grid":[3,4]},"geometry":{"type":"Point","coordinates":[73.442534,18.746021]}},{"type":"Feature","id":"N-35","properties":{"id":"N-35","name":"N-35","is_major":false,"grid":[3,5]},"geometry":{"type":"Point","coordinates":[73.452685,18.747091]}},{"type":"Feature","id":"N-36","properties":{"id":"N-36","name":"Eastgate Junction","is_major":true,"grid":[3,6]},"geometry":{"type":"Point","coordinates":[73.464145,18.746431]}},{"type":"Feature","id":"N-37","properties":{"id":"N-37","name":"N-37","is_major":false,"grid":[3,7]},"geometry":{"type":"Point","coordinates":[73.473092,18.747301]}},{"type":"Feature","id":"N-38","properties":{"id":"N-38","name":"East Gate","is_major":true,"grid":[3,8]},"geometry":{"type":"Point","coordinates":[73.484,18.746553]}},{"type":"Feature","id":"N-40","properties":{"id":"N-40","name":"N-40","is_major":false,"grid":[4,0]},"geometry":{"type":"Point","coordinates":[73.4,18.755806]}},{"type":"Feature","id":"N-41","properties":{"id":"N-41","name":"N-41","is_major":false,"grid":[4,1]},"geometry":{"type":"Point","coordinates":[73.411334,18.755319]}},{"type":"Feature","id":"N-42","properties":{"id":"N-42","name":"N-42","is_major":false,"grid":[4,2]},"geometry":{"type":"Point","coordinates":[73.422055,18.755836]}},{"type":"Feature","id":"N-43","properties":{"id":"N-43","name":"N-43","is_major":false,"grid":[4,3]},"geometry":{"type":"Point","coordinates":[73.430399,18.756292]}},{"type":"Feature","id":"N-44","properties":{"id":"N-44","name":"N-44","is_major":false,"grid":[4,4]},"geometry":{"type":"Point","coordinates":[73.44095,18.756995]}},{"type":"Feature","id":"N-45","properties":{"id":"N-45","name":"N-45","is_major":false,"grid":[4,5]},"geometry":{"type":"Point","coordinates":[73.453717,18.756081]}},{"type":"Feature","id":"N-46","properties":{"id":"N-46","name":"N-46","is_major":false,"grid":[4,6]},"geometry":{"type":"Point","coordinates":[73.461894,18.75546]}},{"type":"Feature","id":"N-47","properties":{"id":"N-47","name":"N-47","is_major":false,"grid":[4,7]},"geometry":{"type":"Point","coordinates":[73.473526,18.757059]}},{"type":"Feature","id":"N-48","properties":{"id":"N-48","name":"N-48","is_major":false,"grid":[4,8]},"geometry":{"type":"Point","coordinates":[73.484,18.756532]}},{"type":"Feature","id":"N-50","properties":{"id":"N-50","name":"N-50","is_major":false,"grid":[5,0]},"geometry":{"type":"Point","coordinates":[73.4,18.764995]}},{"type":"Feature","id":"N-51","properties":{"id":"N-51","name":"N-51","is_major":false,"grid":[5,1]},"geometry":{"type":"Point","coordinates":[73.410264,18.765905]}},{"type":"Feature","id":"N-52","properties":{"id":"N-52","name":"West Ridge Junction","is_major":true,"grid":[5,2]},"geometry":{"type":"Point","coordinates":[73.420739,18.765821]}},{"type":"Feature","id":"N-53","properties":{"id":"N-53","name":"N-53","is_major":false,"grid":[5,3]},"geometry":{"type":"Point","coordinates":[73.430334,18.764868]}},{"type":"Feature","id":"N-54","properties":{"id":"N-54","name":"Hilltop Junction","is_major":true,"grid":[5,4]},"geometry":{"type":"Point","coordinates":[73.442306,18.765112]}},{"type":"Feature","id":"N-55","properties":{"id":"N-55","name":"N-55","is_major":false,"grid":[5,5]},"geometry":{"type":"Point","coordinates":[73.453253,18.764768]}},{"type":"Feature","id":"N-56","properties":{"id":"N-56","name":"Hillview Junction","is_major":true,"grid":[5,6]},"geometry":{"type":"Point","coordinates":[73.462699,18.764847]}},{"type":"Feature","id":"N-57","properties":{"id":"N-57","name":"N-57","is_major":false,"grid":[5,7]},"geometry":{"type":"Point","coordinates":[73.473457,18.765005]}},{"type":"Feature","id":"N-58","properties":{"id":"N-58","name":"N-58","is_major":false,"grid":[5,8]},"geometry":{"type":"Point","coordinates":[73.484,18.765705]}},{"type":"Feature","id":"N-60","properties":{"id":"N-60","name":"N-60","is_major":false,"grid":[6,0]},"geometry":{"type":"Point","coordinates":[73.4,18.774]}},{"type":"Feature","id":"N-61","properties":{"id":"N-61","name":"N-61","is_major":false,"grid":[6,1]},"geometry":{"type":"Point","coordinates":[73.410218,18.774]}},{"type":"Feature","id":"N-62","properties":{"id":"N-62","name":"N-62","is_major":false,"grid":[6,2]},"geometry":{"type":"Point","coordinates":[73.421942,18.774]}},{"type":"Feature","id":"N-63","properties":{"id":"N-63","name":"N-63","is_major":false,"grid":[6,3]},"geometry":{"type":"Point","coordinates":[73.431578,18.774]}},{"type":"Feature","id":"N-64","properties":{"id":"N-64","name":"North Gate","is_major":true,"grid":[6,4]},"geometry":{"type":"Point","coordinates":[73.441166,18.774]}},{"type":"Feature","id":"N-65","properties":{"id":"N-65","name":"N-65","is_major":false,"grid":[6,5]},"geometry":{"type":"Point","coordinates":[73.452508,18.774]}},{"type":"Feature","id":"N-66","properties":{"id":"N-66","name":"N-66","is_major":false,"grid":[6,6]},"geometry":{"type":"Point","coordinates":[73.4629,18.774]}},{"type":"Feature","id":"N-67","properties":{"id":"N-67","name":"N-67","is_major":false,"grid":[6,7]},"geometry":{"type":"Point","coordinates":[73.474616,18.774]}},{"type":"Feature","id":"N-68","properties":{"id":"N-68","name":"N-68","is_major":false,"grid":[6,8]},"geometry":{"type":"Point","coordinates":[73.484,18.774]}}]}