{"type":"FeatureCollection","name":"resources","properties":{"synthetic":false,"modeled_attributes":true,"dataset_version":"kurla-mithi-osm-1.0","notice":"Real geography of Kurla / Mithi River, Mumbai (OpenStreetMap + SRTM). Populations, capacities, power links, pumps and resources are MODELED planning assumptions - not official BMC data, not a flood forecast.","license":"Roads, river, facilities and place names (c) OpenStreetMap contributors, ODbL 1.0. Terrain: SRTM 30 m (public domain)."},"features":[{"type":"Feature","id":"RES-RC1","properties":{"id":"RES-RC1","name":"BMC road clearance team A","resource_type":"road_clearance_team","staging_id":"STG-1","node_id":"N-006","quantity_available":2,"response_radius":3500,"deployment_cost":1.5,"deployment_time_minutes":30,"service_capacity":1,"source":"modeled"},"geometry":{"type":"Point","coordinates":[72.885935,19.08443]}},{"type":"Feature","id":"RES-RC2","properties":{"id":"RES-RC2","name":"BMC road clearance team B","resource_type":"road_clearance_team","staging_id":"STG-2","node_id":"N-046","quantity_available":2,"response_radius":3500,"deployment_cost":1.5,"deployment_time_minutes":30,"service_capacity":1,"source":"modeled"},"geometry":{"type":"Point","coordinates":[72.883,19.0705]}},{"type":"Feature","id":"RES-GEN1","properties":{"id":"RES-GEN1","name":"Portable generator pool (L Ward)","resource_type":"portable_generator","staging_id":"STG-2","node_id":"N-046","quantity_available":3,"response_radius":4500,"deployment_cost":2.0,"deployment_time_minutes":20,"service_capacity":1,"source":"modeled"},"geometry":{"type":"Point","coordinates":[72.883,19.0705]}},{"type":"Feature","id":"RES-GEN2","properties":{"id":"RES-GEN2","name":"Portable generator pool (Tilak Nagar)","resource_type":"portable_generator","staging_id":"STG-3","node_id":"N-056","quantity_available":1,"response_radius":4500,"deployment_cost":2.0,"deployment_time_minutes":20,"service_capacity":1,"source":"modeled"},"geometry":{"type":"Point","coordinates":[72.8935,19.068]}},{"type":"Feature","id":"RES-MED1","properties":{"id":"RES-MED1","name":"Temporary medical unit","resource_type":"temporary_medical_unit","staging_id":"STG-4","node_id":"N-021","quantity_available":2,"response_radius":6000,"deployment_cost":9.0,"deployment_time_minutes":60,"service_capacity":60,"source":"modeled"},"geometry":{"type":"Point","coordinates":[72.864,19.076]}},{"type":"Feature","id":"RES-WAT1","properties":{"id":"RES-WAT1","name":"Water tanker / distribution unit","resource_type":"water_distribution_unit","staging_id":"STG-5","node_id":"N-056","quantity_available":2,"response_radius":6000,"deployment_cost":3.5,"deployment_time_minutes":45,"service_capacity":1500,"source":"modeled"},"geometry":{"type":"Point","coordinates":[72.891978,19.069466]}},{"type":"Feature","id":"RES-SHL1","properties":{"id":"RES-SHL1","name":"Temporary shelter kit","resource_type":"temporary_shelter_kit","staging_id":"STG-3","node_id":"N-056","quantity_available":2,"response_radius":6000,"deployment_cost":4.0,"deployment_time_minutes":50,"service_capacity":250,"source":"modeled"},"geometry":{"type":"Point","coordinates":[72.8935,19.068]}}]}