{"type":"FeatureCollection","name":"river","properties":{"synthetic":false,"modeled_attributes":true,"dataset_version":"kurla-mithi-osm-1.0","notice":"Real geography of Kurla / Mithi River, Mumbai (OpenStreetMap + SRTM). Populations, capacities, power links, pumps and resources are MODELED planning assumptions - not official BMC data, not a flood forecast.","license":"Roads, river, facilities and place names (c) OpenStreetMap contributors, ODbL 1.0. Terrain: SRTM 30 m (public domain)."},"features":[{"type":"Feature","id":"RIVER-1","properties":{"id":"RIVER-1","name":"Mithi River","source":"OpenStreetMap","osm_way_id":204352191},"geometry":{"type":"LineString","coordinates":[[72.878796,19.087691],[72.878664,19.085484],[72.877815,19.083773],[72.877571,19.083233],[72.877611,19.081999],[72.878484,19.080604],[72.878681,19.079733],[72.878566,19.079324],[72.877995,19.078885],[72.877228,19.078877],[72.8766,19.079047],[72.87634,19.078982],[72.876226,19.078953],[72.875539,19.077829],[72.874887,19.077274],[72.87358,19.076672],[72.871909,19.07577],[72.871537,19.075493],[72.871473,19.075329],[72.871767,19.074392],[72.872155,19.073176],[72.872766,19.072011],[72.873202,19.071424],[72.873402,19.070563],[72.872721,19.067265],[72.869558,19.059792],[72.868217,19.056607],[72.866129,19.055564],[72.864815,19.055579],[72.863812,19.056028],[72.862932,19.056388],[72.861725,19.056591],[72.860711,19.056885],[72.860078,19.057286],[72.859322,19.05761],[72.85871,19.057762],[72.857101,19.057311],[72.856691,19.057047]]}}]}