{"type":"FeatureCollection","name":"roads","properties":{"synthetic":true,"dataset_version":"sahyadri-synthetic-1.0","notice":"Synthetic demonstration data. Not official or real."},"features":[{"type":"Feature","id":"R-001","properties":{"id":"R-001","start_node_id":"N-00","end_node_id":"N-01","road_type":"local","name":"Road R-001","length_m":1016.4,"base_travel_time_minutes":4.066,"flood_susceptibility":0.104,"elevation_proxy":0.91,"drainage_score":0.653,"power_dependency":null,"current_status":"open","closure_reason":null,"estimated_repair_cost":1.22,"criticality_score":0.0,"threshold_bonus":-0.03},"geometry":{"type":"LineString","coordinates":[[73.4,18.72],[73.40525,18.720157],[73.409646,18.72]]}},{"type":"Feature","id":"R-002","properties":{"id":"R-002","start_node_id":"N-00","end_node_id":"N-10","road_type":"local","name":"Road R-002","length_m":1000.4,"base_travel_time_minutes":4.002,"flood_susceptibility":0.1,"elevation_proxy":0.913,"drainage_score":0.617,"power_dependency":null,"current_status":"open","closure_reason":null,"estimated_repair_cost":1.2,"criticality_score":0.0,"threshold_bonus":-0.03},"geometry":{"type":"LineString","coordinates":[[73.4,18.72],[73.400002,18.7245],[73.4,18.728997]]}},{"type":"Feature","id":"R-003","properties":{"id":"R-003","start_node_id":"N-01","end_node_id":"N-02","road_type":"local","name":"Road R-003","length_m":1101.8,"base_travel_time_minutes":4.407,"flood_susceptibility":0.165,"elevation_proxy":0.857,"drainage_score":0.526,"power_dependency":null,"current_status":"open","closure_reason":null,"estimated_repair_cost":1.32,"criticality_score":0.0,"threshold_bonus":-0.03},"geometry":{"type":"LineString","coordinates":[[73.409646,18.72],[73.41575,18.719777],[73.420097,18.72]]}},{"type":"Feature","id":"R-004","properties":{"id":"R-004","start_node_id":"N-01","end_node_id":"N-11","road_type":"local","name":"Road R-004","length_m":1030.5,"base_travel_time_minutes":4.122,"flood_susceptibility":0.258,"elevation_proxy":0.775,"drainage_score":0.623,"power_dependency":null,"current_status":"open","closure_reason":null,"estimated_repair_cost":1.24,"criticality_score":0.0,"threshold_bonus":-0.03},"geometry":{"type":"LineString","coordinates":[[73.409646,18.72],[73.410165,18.7245],[73.409926,18.729235]]}},{"type":"Feature","id":"R-005","properties":{"id":"R-005","start_node_id":"N-02","end_node_id":"N-12","road_type":"collector","name":"Road R-005","length_m":1112.9,"base_travel_time_minutes":2.671,"flood_susceptibility":0.256,"elevation_proxy":0.778,"drainage_score":0.791,"power_dependency":null,"current_status":"open","closure_reason":null,"estimated_repair_cost":2.78,"criticality_score":0.0,"threshold_bonus":0.0},"geometry":{"type":"LineString","coordinates":[[73.420097,18.72],[73.420993,18.7245],[73.421917,18.729858]]}},{"type":"Feature","id":"R-006","properties":{"id":"R-006","start_node_id":"N-03","end_node_id":"N-13","road_type":"local","name":"Road R-006","length_m":903.3,"base_travel_time_minutes":3.613,"flood_susceptibility":0.137,"elevation_proxy":0.881,"drainage_score":0.657,"power_dependency":null,"current_status":"open","closure_reason":null,"estimated_repair_cost":1.08,"criticality_score":0.0,"threshold_bonus":-0.03},"geometry":{"type":"LineString","coordinates":[[73.432546,18.72],[73.431474,18.7245],[73.432163,18.727949]]}},{"type":"Feature","id":"R-007","properties":{"id":"R-007","start_node_id":"N-04","end_node_id":"N-05","road_type":"local","name":"Road R-007","length_m":1195.9,"base_travel_time_minutes":4.784,"flood_susceptibility":0.111,"elevation_proxy":0.903,"drainage_score":0.692,"power_dependency":null,"current_status":"open","closure_reason":null,"estimated_repair_cost":1.44,"criticality_score":0.0,"threshold_bonus":-0.03},"geometry":{"type":"LineString","coordinates":[[73.441674,18.72],[73.44725,18.720355],[73.453005,18.72]]}},{"type":"Feature","id":"R-008","properties":{"id":"R-008","start_node_id":"N-04","end_node_id":"N-14","road_type":"arterial","name":"Road R-008","length_m":1000.1,"base_travel_time_minutes":1.714,"flood_susceptibility":0.126,"elevation_proxy":0.891,"drainage_score":0.575,"power_dependency":null,"current_status":"open","closure_reason":null,"estimated_repair_cost":4.0,"criticality_score":0.0,"threshold_bonus":0.05},"geometry":{"type":"LineString","coordinates":[[73.441674,18.72],[73.442,18.7245],[73.442952,18.728892]]}},{"type":"Feature","id":"R-009","properties":{"id":"R-009","start_node_id":"N-05","end_node_id":"N-06","road_type":"local","name":"Road R-009","length_m":1166.6,"base_travel_time_minutes":4.666,"flood_susceptibility":0.167,"elevation_proxy":0.855,"drainage_score":0.819,"power_dependency":null,"current_status":"open","closure_reason":null,"estimated_repair_cost":1.4,"criticality_score":0.0,"threshold_bonus":-0.03},"geometry":{"type":"LineString","coordinates":[[73.453005,18.72],[73.45775,18.72048],[73.464035,18.72]]}},{"type":"Feature","id":"R-010","properties":{"id":"R-010","start_node_id":"N-06","end_node_id":"N-07","road_type":"local","name":"Road R-010","length_m":1040.1,"base_travel_time_minutes":4.161,"flood_susceptibility":0.251,"elevation_proxy":0.782,"drainage_score":0.769,"power_dependency":null,"current_status":"open","closure_reason":null,"estimated_repair_cost":1.25,"criticality_score":0.0,"threshold_bonus":-0.03},"geometry":{"type":"LineString","coordinates":[[73.464035,18.72],[73.46825,18.72037],[73.47388,18.72]]}},{"type":"Feature","id":"R-011","properties":{"id":"R-011","start_node_id":"N-06","end_node_id":"N-16","road_type":"collector","name":"Road R-011","length_m":1056.9,"base_travel_time_minutes":2.537,"flood_susceptibility":0.28,"elevation_proxy":0.756,"drainage_score":0.714,"power_dependency":null,"current_status":"open","closure_reason":null,"estimated_repair_cost":2.64,"criticality_score":0.0,"threshold_bonus":0.0},"geometry":{"type":"LineString","coordinates":[[73.464035,18.72],[73.462823,18.7245],[73.46195,18.72929]]}},{"type":"Feature","id":"R-012","properties":{"id":"R-012","start_node_id":"N-07","end_node_id":"N-08","road_type":"local","name":"Road R-012","length_m":1067.4,"base_travel_time_minutes":4.27,"flood_susceptibility":0.372,"elevation_proxy":0.676,"drainage_score":0.578,"power_dependency":null,"current_status":"open","closure_reason":null,"estimated_repair_cost":1.28,"criticality_score":0.0,"threshold_bonus":-0.03},"geometry":{"type":"LineString","coordinates":[[73.47388,18.72],[73.47875,18.720269],[73.484,18.72]]}},{"type":"Feature","id":"R-013","properties":{"id":"R-013","start_node_id":"N-07","end_node_id":"N-17","road_type":"local","name":"Road R-013","length_m":948.9,"base_travel_time_minutes":3.795,"flood_susceptibility":0.423,"elevation_proxy":0.632,"drainage_score":0.512,"power_dependency":null,"current_status":"open","closure_reason":null,"estimated_repair_cost":1.14,"criticality_score":0.0,"threshold_bonus":-0.03},"geometry":{"type":"LineString","coordinates":[[73.47388,18.72],[73.473288,18.7245],[73.47228,18.728383]]}},{"type":"Feature","id":"R-014","properties":{"id":"R-014","start_node_id":"N-08","end_node_id":"N-18","road_type":"local","name":"Road R-014","length_m":909.2,"base_travel_time_minutes":3.637,"flood_susceptibility":0.587,"elevation_proxy":0.489,"drainage_score":0.572,"power_dependency":null,"current_status":"open","closure_reason":null,"estimated_repair_cost":1.09,"criticality_score":0.0,"threshold_bonus":-0.03},"geometry":{"type":"LineString","coordinates":[[73.484,18.72],[73.484308,18.7245],[73.484,18.728156]]}},{"type":"Feature","id":"R-015","properties":{"id":"R-015","start_node_id":"N-10","end_node_id":"N-11","road_type":"collector","name":"Road R-015","length_m":1058.5,"base_travel_time_minutes":2.54,"flood_susceptibility":0.249,"elevation_proxy":0.784,"drainage_score":0.784,"power_dependency":null,"current_status":"open","closure_reason":null,"estimated_repair_cost":2.65,"criticality_score":0.0,"threshold_bonus":0.0},"geometry":{"type":"LineString","coordinates":[[73.4,18.728997],[73.40525,18.728384],[73.409926,18.729235]]}},{"type":"Feature","id":"R-016","properties":{"id":"R-016","start_node_id":"N-10","end_node_id":"N-20","road_type":"local","name":"Road R-016","length_m":1098.1,"base_travel_time_minutes":4.393,"flood_susceptibility":0.157,"elevation_proxy":0.864,"drainage_score":0.799,"power_dependency":null,"current_status":"open","closure_reason":null,"estimated_repair_cost":1.32,"criticality_score":0.0,"threshold_bonus":-0.03},"geometry":{"type":"LineString","coordinates":[[73.4,18.728997],[73.400382,18.7335],[73.4,18.738846]]}},{"type":"Feature","id":"R-017","properties":{"id":"R-017","start_node_id":"N-11","end_node_id":"N-12","road_type":"collector","name":"Road R-017","length_m":1264.7,"base_travel_time_minutes":3.035,"flood_susceptibility":0.405,"elevation_proxy":0.648,"drainage_score":0.501,"power_dependency":null,"current_status":"open","closure_reason":null,"estimated_repair_cost":3.16,"criticality_score":0.0,"threshold_bonus":0.0},"geometry":{"type":"LineString","coordinates":[[73.409926,18.729235],[73.41575,18.729589],[73.421917,18.729858]]}},{"type":"Feature","id":"R-018","properties":{"id":"R-018","start_node_id":"N-11","end_node_id":"N-21","road_type":"local","name":"Road R-018","length_m":884.3,"base_travel_time_minutes":3.537,"flood_susceptibility":0.393,"elevation_proxy":0.659,"drainage_score":0.646,"power_dependency":null,"current_status":"open","closure_reason":null,"estimated_repair_cost":1.06,"criticality_score":0.0,"threshold_bonus":-0.03},"geometry":{"type":"LineString","coordinates":[[73.409926,18.729235],[73.410381,18.7335],[73.409563,18.737083]]}},{"type":"Feature","id":"R-019","properties":{"id":"R-019","start_node_id":"N-12","end_node_id":"N-13","road_type":"collector","name":"Road R-019","length_m":1100.6,"base_travel_time_minutes":2.641,"flood_susceptibility":0.267,"elevation_proxy":0.768,"drainage_score":0.677,"power_dependency":null,"current_status":"open","closure_reason":null,"estimated_repair_cost":2.75,"criticality_score":0.0,"threshold_bonus":0.0},"geometry":{"type":"LineString","coordinates":[[73.421917,18.729858],[73.42625,18.728845],[73.432163,18.727949]]}},{"type":"Feature","id":"R-020","properties":{"id":"R-020","start_node_id":"N-12","end_node_id":"N-22","road_type":"collector","name":"Road R-020","length_m":1009.0,"base_travel_time_minutes":2.422,"flood_susceptibility":0.407,"elevation_proxy":0.646,"drainage_score":0.505,"power_dependency":null,"current_status":"open","closure_reason":null,"estimated_repair_cost":2.52,"criticality_score":0.0,"threshold_bonus":0.0},"geometry":{"type":"LineString","coordinates":[[73.421917,18.729858],[73.421488,18.7335],[73.421493,18.73891]]}},{"type":"Feature","id":"R-021","properties":{"id":"R-021","start_node_id":"N-13","end_node_id":"N-14","road_type":"collector","name":"Road R-021","length_m":1141.5,"base_travel_time_minutes":2.74,"flood_susceptibility":0.164,"elevation_proxy":0.857,"drainage_score":0.664,"power_dependency":null,"current_status":"open","closure_reason":null,"estimated_repair_cost":2.85,"criticality_score":0.0,"threshold_bonus":0.0},"geometry":{"type":"LineString","coordinates":[[73.432163,18.727949],[73.43675,18.728503],[73.442952,18.728892]]}},{"type":"Feature","id":"R-022","properties":{"id":"R-022","start_node_id":"N-14","end_node_id":"N-15","road_type":"collector","name":"Road R-022","length_m":929.3,"base_travel_time_minutes":2.23,"flood_susceptibility":0.208,"elevation_proxy":0.82,"drainage_score":0.705,"power_dependency":null,"current_status":"open","closure_reason":null,"estimated_repair_cost":2.32,"criticality_score":0.0,"threshold_bonus":0.0},"geometry":{"type":"LineString","coordinates":[[73.442952,18.728892],[73.44725,18.729024],[73.451764,18.728737]]}},{"type":"Feature","id":"R-023","properties":{"id":"R-023","start_node_id":"N-14","end_node_id":"N-24","road_type":"arterial","name":"Road R-023","length_m":985.1,"base_travel_time_minutes":1.689,"flood_susceptibility":0.237,"elevation_proxy":0.794,"drainage_score":0.633,"power_dependency":null,"current_status":"open","closure_reason":null,"estimated_repair_cost":3.94,"criticality_score":0.0,"threshold_bonus":0.05},"geometry":{"type":"LineString","coordinates":[[73.442952,18.728892],[73.442,18.7335],[73.441396,18.737624]]}},{"type":"Feature","id":"R-024","properties":{"id":"R-024","start_node_id":"N-15","end_node_id":"N-16","road_type":"collector","name":"Road R-024","length_m":1074.9,"base_travel_time_minutes":2.58,"flood_susceptibility":0.314,"elevation_proxy":0.727,"drainage_score":0.755,"power_dependency":null,"current_status":"open","closure_reason":null,"estimated_repair_cost":2.69,"criticality_score":0.0,"threshold_bonus":0.0},"geometry":{"type":"LineString","coordinates":[[73.451764,18.728737],[73.45775,18.728926],[73.46195,18.72929]]}},{"type":"Feature","id":"R-025","properties":{"id":"R-025","start_node_id":"N-15","end_node_id":"N-25","road_type":"local","name":"Road R-025","length_m":979.1,"base_travel_time_minutes":3.916,"flood_susceptibility":0.352,"elevation_proxy":0.693,"drainage_score":0.671,"power_dependency":null,"current_status":"open","closure_reason":null,"estimated_repair_cost":1.17,"criticality_score":0.0,"threshold_bonus":-0.03},"geometry":{"type":"LineString","coordinates":[[73.451764,18.728737],[73.451766,18.7335],[73.452733,18.737437]]}},{"type":"Feature","id":"R-026","properties":{"id":"R-026","start_node_id":"N-16","end_node_id":"N-17","road_type":"collector","name":"Road R-026","length_m":1096.3,"base_travel_time_minutes":2.631,"flood_susceptibility":0.475,"elevation_proxy":0.587,"drainage_score":0.689,"power_dependency":null,"current_status":"open","closure_reason":null,"estimated_repair_cost":2.74,"criticality_score":0.0,"threshold_bonus":0.0},"geometry":{"type":"LineString","coordinates":[[73.46195,18.72929],[73.46825,18.72914],[73.47228,18.728383]]}},{"type":"Feature","id":"R-027","properties":{"id":"R-027","start_node_id":"N-16","end_node_id":"N-26","road_type":"collector","name":"Road R-027","length_m":962.7,"base_travel_time_minutes":2.31,"flood_susceptibility":0.535,"elevation_proxy":0.535,"drainage_score":0.646,"power_dependency":null,"current_status":"open","closure_reason":null,"estimated_repair_cost":2.41,"criticality_score":0.0,"threshold_bonus":0.0},"geometry":{"type":"LineString","coordinates":[[73.46195,18.72929],[73.462994,18.7335],[73.463796,18.737766]]}},{"type":"Feature","id":"R-028","properties":{"id":"R-028","start_node_id":"N-17","end_node_id":"N-18","road_type":"collector","name":"Road R-028","length_m":1240.1,"base_travel_time_minutes":2.976,"flood_susceptibility":0.718,"elevation_proxy":0.376,"drainage_score":0.434,"power_dependency":null,"current_status":"open","closure_reason":null,"estimated_repair_cost":3.1,"criticality_score":0.0,"threshold_bonus":0.0},"geometry":{"type":"LineString","coordinates":[[73.47228,18.728383],[73.47875,18.728784],[73.484,18.728156]]}},{"type":"Feature","id":"R-029","properties":{"id":"R-029","start_node_id":"N-20","end_node_id":"N-21","road_type":"local","name":"Road R-029","length_m":1026.1,"base_travel_time_minutes":4.104,"flood_susceptibility":0.251,"elevation_proxy":0.782,"drainage_score":0.755,"power_dependency":null,"current_status":"open","closure_reason":null,"estimated_repair_cost":1.23,"criticality_score":0.0,"threshold_bonus":-0.03},"geometry":{"type":"LineString","coordinates":[[73.4,18.738846],[73.40525,18.737788],[73.409563,18.737083]]}},{"type":"Feature","id":"R-030","properties":{"id":"R-030","start_node_id":"N-20","end_node_id":"N-30","road_type":"local","name":"Road R-030","length_m":992.6,"base_travel_time_minutes":3.97,"flood_susceptibility":0.162,"elevation_proxy":0.859,"drainage_score":0.662,"power_dependency":null,"current_status":"open","closure_reason":null,"estimated_repair_cost":1.19,"criticality_score":0.0,"threshold_bonus":-0.03},"geometry":{"type":"LineString","coordinates":[[73.4,18.738846],[73.400723,18.7425],[73.4,18.747664]]}},{"type":"Feature","id":"R-031","properties":{"id":"R-031","start_node_id":"N-21","end_node_id":"N-22","road_type":"local","name":"Road R-031","length_m":1276.2,"base_travel_time_minutes":5.105,"flood_susceptibility":0.406,"elevation_proxy":0.647,"drainage_score":0.511,"power_dependency":null,"current_status":"open","closure_reason":null,"estimated_repair_cost":1.53,"criticality_score":0.0,"threshold_bonus":-0.03},"geometry":{"type":"LineString","coordinates":[[73.409563,18.737083],[73.41575,18.738467],[73.421493,18.73891]]}},{"type":"Feature","id":"R-032","properties":{"id":"R-032","start_node_id":"N-21","end_node_id":"N-31","road_type":"local","name":"Road R-032","length_m":1063.2,"base_travel_time_minutes":4.253,"flood_susceptibility":0.299,"elevation_proxy":0.74,"drainage_score":0.442,"power_dependency":null,"current_status":"open","closure_reason":null,"estimated_repair_cost":1.28,"criticality_score":0.0,"threshold_bonus":-0.03},"geometry":{"type":"LineString","coordinates":[[73.409563,18.737083],[73.410459,18.7425],[73.411685,18.74641]]}},{"type":"Feature","id":"R-033","properties":{"id":"R-033","start_node_id":"N-22","end_node_id":"N-23","road_type":"local","name":"Road R-033","length_m":970.1,"base_travel_time_minutes":3.881,"flood_susceptibility":0.354,"elevation_proxy":0.692,"drainage_score":0.722,"power_dependency":null,"current_status":"open","closure_reason":null,"estimated_repair_cost":1.16,"criticality_score":0.0,"threshold_bonus":-0.03},"geometry":{"type":"LineString","coordinates":[[73.421493,18.73891],[73.42625,18.73796],[73.430601,18.737901]]}},{"type":"Feature","id":"R-034","properties":{"id":"R-034","start_node_id":"N-22","end_node_id":"N-32","road_type":"collector","name":"Road R-034","length_m":790.1,"base_travel_time_minutes":1.896,"flood_susceptibility":0.38,"elevation_proxy":0.67,"drainage_score":0.45,"power_dependency":null,"current_status":"open","closure_reason":null,"estimated_repair_cost":1.98,"criticality_score":0.0,"threshold_bonus":0.0},"geometry":{"type":"LineString","coordinates":[[73.421493,18.73891],[73.420704,18.7425],[73.420618,18.745938]]}},{"type":"Feature","id":"R-035","properties":{"id":"R-035","start_node_id":"N-23","end_node_id":"N-24","road_type":"local","name":"Road R-035","length_m":1147.3,"base_travel_time_minutes":4.589,"flood_susceptibility":0.315,"elevation_proxy":0.726,"drainage_score":0.404,"power_dependency":null,"current_status":"open","closure_reason":null,"estimated_repair_cost":1.38,"criticality_score":0.0,"threshold_bonus":-0.03},"geometry":{"type":"LineString","coordinates":[[73.430601,18.737901],[73.43675,18.738422],[73.441396,18.737624]]}},{"type":"Feature","id":"R-036","properties":{"id":"R-036","start_node_id":"N-23","end_node_id":"N-33","road_type":"local","name":"Road R-036","length_m":1138.7,"base_travel_time_minutes":4.555,"flood_susceptibility":0.413,"elevation_proxy":0.641,"drainage_score":0.355,"power_dependency":null,"current_status":"open","closure_reason":null,"estimated_repair_cost":1.37,"criticality_score":0.0,"threshold_bonus":-0.03},"geometry":{"type":"LineString","coordinates":[[73.430601,18.737901],[73.432014,18.7425],[73.430881,18.747844]]}},{"type":"Feature","id":"R-037","properties":{"id":"R-037","start_node_id":"N-24","end_node_id":"N-25","road_type":"local","name":"Road R-037","length_m":1197.0,"base_travel_time_minutes":4.788,"flood_susceptibility":0.397,"elevation_proxy":0.655,"drainage_score":0.619,"power_dependency":null,"current_status":"open","closure_reason":null,"estimated_repair_cost":1.44,"criticality_score":0.0,"threshold_bonus":-0.03},"geometry":{"type":"LineString","coordinates":[[73.441396,18.737624],[73.44725,18.737908],[73.452733,18.737437]]}},{"type":"Feature","id":"R-038","properties":{"id":"R-038","start_node_id":"N-24","end_node_id":"N-34","road_type":"arterial","name":"Road R-038","length_m":941.4,"base_travel_time_minutes":1.614,"flood_susceptibility":0.49,"elevation_proxy":0.574,"drainage_score":0.583,"power_dependency":null,"current_status":"open","closure_reason":null,"estimated_repair_cost":3.77,"criticality_score":0.0,"threshold_bonus":0.05},"geometry":{"type":"LineString","coordinates":[[73.441396,18.737624],[73.442,18.7425],[73.442534,18.746021]]}},{"type":"Feature","id":"R-039","properties":{"id":"R-039","start_node_id":"N-25","end_node_id":"N-26","road_type":"local","name":"Road R-039","length_m":1184.7,"base_travel_time_minutes":4.739,"flood_susceptibility":0.602,"elevation_proxy":0.476,"drainage_score":0.502,"power_dependency":null,"current_status":"open","closure_reason":null,"estimated_repair_cost":1.42,"criticality_score":0.0,"threshold_bonus":-0.03},"geometry":{"type":"LineString","coordinates":[[73.452733,18.737437],[73.45775,18.738538],[73.463796,18.737766]]}},{"type":"Feature","id":"R-040","properties":{"id":"R-040","start_node_id":"N-25","end_node_id":"N-35","road_type":"local","name":"Road R-040","length_m":1073.7,"base_travel_time_minutes":4.295,"flood_susceptibility":0.679,"elevation_proxy":0.409,"drainage_score":0.293,"power_dependency":null,"current_status":"open","closure_reason":null,"estimated_repair_cost":1.29,"criticality_score":0.0,"threshold_bonus":-0.03},"geometry":{"type":"LineString","coordinates":[[73.452733,18.737437],[73.452803,18.7425],[73.452685,18.747091]]}},{"type":"Feature","id":"R-041","properties":{"id":"R-041","start_node_id":"N-26","end_node_id":"N-36","road_type":"bridge","name":"Bridge R-041","length_m":986.5,"base_travel_time_minutes":2.367,"flood_susceptibility":0.964,"elevation_proxy":0.162,"drainage_score":0.534,"power_dependency":null,"current_status":"open","closure_reason":null,"estimated_repair_cost":6.91,"criticality_score":0.0,"threshold_bonus":0.12},"geometry":{"type":"LineString","coordinates":[[73.463796,18.737766],[73.463,18.7425],[73.464145,18.746431]]}},{"type":"Feature","id":"R-042","properties":{"id":"R-042","start_node_id":"N-27","end_node_id":"N-28","road_type":"local","name":"Road R-042","length_m":1199.8,"base_travel_time_minutes":4.799,"flood_susceptibility":0.723,"elevation_proxy":0.371,"drainage_score":0.514,"power_dependency":null,"current_status":"open","closure_reason":null,"estimated_repair_cost":1.44,"criticality_score":0.0,"threshold_bonus":-0.03},"geometry":{"type":"LineString","coordinates":[[73.472712,18.738802],[73.47875,18.737947],[73.484,18.737342]]}},{"type":"Feature","id":"R-043","properties":{"id":"R-043","start_node_id":"N-27","end_node_id":"N-37","road_type":"local","name":"Road R-043","length_m":949.9,"base_travel_time_minutes":3.799,"flood_susceptibility":0.636,"elevation_proxy":0.447,"drainage_score":0.681,"power_dependency":null,"current_status":"open","closure_reason":null,"estimated_repair_cost":1.14,"criticality_score":0.0,"threshold_bonus":-0.03},"geometry":{"type":"LineString","coordinates":[[73.472712,18.738802],[73.473286,18.7425],[73.473092,18.747301]]}},{"type":"Feature","id":"R-044","properties":{"id":"R-044","start_node_id":"N-28","end_node_id":"N-38","road_type":"local","name":"Road R-044","length_m":1034.7,"base_travel_time_minutes":4.139,"flood_susceptibility":0.417,"elevation_proxy":0.637,"drainage_score":0.455,"power_dependency":null,"current_status":"open","closure_reason":null,"estimated_repair_cost":1.24,"criticality_score":0.0,"threshold_bonus":-0.03},"geometry":{"type":"LineString","coordinates":[[73.484,18.737342],[73.483306,18.7425],[73.484,18.746553]]}},{"type":"Feature","id":"R-045","properties":{"id":"R-045","start_node_id":"N-30","end_node_id":"N-31","road_type":"arterial","name":"Road R-045","length_m":1238.5,"base_travel_time_minutes":2.123,"flood_susceptibility":0.239,"elevation_proxy":0.792,"drainage_score":0.764,"power_dependency":null,"current_status":"open","closure_reason":null,"estimated_repair_cost":4.95,"criticality_score":0.0,"threshold_bonus":0.05},"geometry":{"type":"LineString","coordinates":[[73.4,18.747664],[73.40525,18.747],[73.411685,18.74641]]}},{"type":"Feature","id":"R-046","properties":{"id":"R-046","start_node_id":"N-30","end_node_id":"N-40","road_type":"local","name":"Road R-046","length_m":910.1,"base_travel_time_minutes":3.64,"flood_susceptibility":0.261,"elevation_proxy":0.773,"drainage_score":0.435,"power_dependency":null,"current_status":"open","closure_reason":null,"estimated_repair_cost":1.09,"criticality_score":0.0,"threshold_bonus":-0.03},"geometry":{"type":"LineString","coordinates":[[73.4,18.747664],[73.399561,18.7515],[73.4,18.755806]]}},{"type":"Feature","id":"R-047","properties":{"id":"R-047","start_node_id":"N-31","end_node_id":"N-32","road_type":"arterial","name":"Road R-047","length_m":959.0,"base_travel_time_minutes":1.644,"flood_susceptibility":0.355,"elevation_proxy":0.691,"drainage_score":0.62,"power_dependency":null,"current_status":"open","closure_reason":null,"estimated_repair_cost":3.84,"criticality_score":0.0,"threshold_bonus":0.05},"geometry":{"type":"LineString","coordinates":[[73.411685,18.74641],[73.41575,18.747],[73.420618,18.745938]]}},{"type":"Feature","id":"R-048","properties":{"id":"R-048","start_node_id":"N-31","end_node_id":"N-41","road_type":"local","name":"Road R-048","length_m":1014.3,"base_travel_time_minutes":4.057,"flood_susceptibility":0.361,"elevation_proxy":0.686,"drainage_score":0.584,"power_dependency":null,"current_status":"open","closure_reason":null,"estimated_repair_cost":1.22,"criticality_score":0.0,"threshold_bonus":-0.03},"geometry":{"type":"LineString","coordinates":[[73.411685,18.74641],[73.410475,18.7515],[73.411334,18.755319]]}},{"type":"Feature","id":"R-049","properties":{"id":"R-049","start_node_id":"N-32","end_node_id":"N-33","road_type":"arterial","name":"Road R-049","length_m":1101.2,"base_travel_time_minutes":1.888,"flood_susceptibility":0.489,"elevation_proxy":0.575,"drainage_score":0.5,"power_dependency":null,"current_status":"open","closure_reason":null,"estimated_repair_cost":4.4,"criticality_score":0.0,"threshold_bonus":0.05},"geometry":{"type":"LineString","coordinates":[[73.420618,18.745938],[73.42625,18.747],[73.430881,18.747844]]}},{"type":"Feature","id":"R-050","properties":{"id":"R-050","start_node_id":"N-32","end_node_id":"N-42","road_type":"collector","name":"Road R-050","length_m":1137.3,"base_travel_time_minutes":2.729,"flood_susceptibility":0.531,"elevation_proxy":0.539,"drainage_score":0.638,"power_dependency":null,"current_status":"open","closure_reason":null,"estimated_repair_cost":2.84,"criticality_score":0.0,"threshold_bonus":0.0},"geometry":{"type":"LineString","coordinates":[[73.420618,18.745938],[73.420265,18.7515],[73.422055,18.755836]]}},{"type":"Feature","id":"R-051","properties":{"id":"R-051","start_node_id":"N-33","end_node_id":"N-34","road_type":"arterial","name":"Road R-051","length_m":1243.7,"base_travel_time_minutes":2.132,"flood_susceptibility":0.633,"elevation_proxy":0.45,"drainage_score":0.681,"power_dependency":null,"current_status":"open","closure_reason":null,"estimated_repair_cost":4.97,"criticality_score":0.0,"threshold_bonus":0.05},"geometry":{"type":"LineString","coordinates":[[73.430881,18.747844],[73.43675,18.747],[73.442534,18.746021]]}},{"type":"Feature","id":"R-052","properties":{"id":"R-052","start_node_id":"N-34","end_node_id":"N-35","road_type":"arterial","name":"Road R-052","length_m":1080.7,"base_travel_time_minutes":1.853,"flood_susceptibility":0.797,"elevation_proxy":0.307,"drainage_score":0.281,"power_dependency":null,"current_status":"open","closure_reason":null,"estimated_repair_cost":4.32,"criticality_score":0.0,"threshold_bonus":0.05},"geometry":{"type":"LineString","coordinates":[[73.442534,18.746021],[73.44725,18.747],[73.452685,18.747091]]}},{"type":"Feature","id":"R-053","properties":{"id":"R-053","start_node_id":"N-34","end_node_id":"N-44","road_type":"bridge","name":"Bridge R-053","length_m":1232.8,"base_travel_time_minutes":2.959,"flood_susceptibility":0.953,"elevation_proxy":0.171,"drainage_score":0.388,"power_dependency":null,"current_status":"open","closure_reason":null,"estimated_repair_cost":8.63,"criticality_score":0.0,"threshold_bonus":0.12},"geometry":{"type":"LineString","coordinates":[[73.442534,18.746021],[73.442,18.7515],[73.44095,18.756995]]}},{"type":"Feature","id":"R-054","properties":{"id":"R-054","start_node_id":"N-35","end_node_id":"N-36","road_type":"bridge","name":"Bridge R-054","length_m":1209.8,"base_travel_time_minutes":2.903,"flood_susceptibility":0.85,"elevation_proxy":0.261,"drainage_score":0.624,"power_dependency":null,"current_status":"open","closure_reason":null,"estimated_repair_cost":8.47,"criticality_score":0.0,"threshold_bonus":0.12},"geometry":{"type":"LineString","coordinates":[[73.452685,18.747091],[73.45775,18.747],[73.464145,18.746431]]}},{"type":"Feature","id":"R-055","properties":{"id":"R-055","start_node_id":"N-36","end_node_id":"N-37","road_type":"arterial","name":"Road R-055","length_m":947.8,"base_travel_time_minutes":1.625,"flood_susceptibility":0.562,"elevation_proxy":0.511,"drainage_score":0.548,"power_dependency":null,"current_status":"open","closure_reason":null,"estimated_repair_cost":3.79,"criticality_score":0.0,"threshold_bonus":0.05},"geometry":{"type":"LineString","coordinates":[[73.464145,18.746431],[73.46825,18.747],[73.473092,18.747301]]}},{"type":"Feature","id":"R-056","properties":{"id":"R-056","start_node_id":"N-36","end_node_id":"N-46","road_type":"collector","name":"Road R-056","length_m":1031.7,"base_travel_time_minutes":2.476,"flood_susceptibility":0.511,"elevation_proxy":0.556,"drainage_score":0.487,"power_dependency":null,"current_status":"open","closure_reason":null,"estimated_repair_cost":2.58,"criticality_score":0.0,"threshold_bonus":0.0},"geometry":{"type":"LineString","coordinates":[[73.464145,18.746431],[73.462955,18.7515],[73.461894,18.75546]]}},{"type":"Feature","id":"R-057","properties":{"id":"R-057","start_node_id":"N-37","end_node_id":"N-38","road_type":"arterial","name":"Road R-057","length_m":1151.7,"base_travel_time_minutes":1.974,"flood_susceptibility":0.365,"elevation_proxy":0.682,"drainage_score":0.765,"power_dependency":null,"current_status":"open","closure_reason":null,"estimated_repair_cost":4.61,"criticality_score":0.0,"threshold_bonus":0.05},"geometry":{"type":"LineString","coordinates":[[73.473092,18.747301],[73.47875,18.747],[73.484,18.746553]]}},{"type":"Feature","id":"R-058","properties":{"id":"R-058","start_node_id":"N-37","end_node_id":"N-47","road_type":"local","name":"Road R-058","length_m":1091.6,"base_travel_time_minutes":4.366,"flood_susceptibility":0.334,"elevation_proxy":0.71,"drainage_score":0.582,"power_dependency":null,"current_status":"open","closure_reason":null,"estimated_repair_cost":1.31,"criticality_score":0.0,"threshold_bonus":-0.03},"geometry":{"type":"LineString","coordinates":[[73.473092,18.747301],[73.473799,18.7515],[73.473526,18.757059]]}},{"type":"Feature","id":"R-059","properties":{"id":"R-059","start_node_id":"N-40","end_node_id":"N-41","road_type":"local","name":"Road R-059","length_m":1206.5,"base_travel_time_minutes":4.826,"flood_susceptibility":0.434,"elevation_proxy":0.622,"drainage_score":0.357,"power_dependency":null,"current_status":"open","closure_reason":null,"estimated_repair_cost":1.45,"criticality_score":0.0,"threshold_bonus":-0.03},"geometry":{"type":"LineString","coordinates":[[73.4,18.755806],[73.40525,18.756338],[73.411334,18.755319]]}},{"type":"Feature","id":"R-060","properties":{"id":"R-060","start_node_id":"N-40","end_node_id":"N-50","road_type":"local","name":"Road R-060","length_m":1029.4,"base_travel_time_minutes":4.118,"flood_susceptibility":0.541,"elevation_proxy":0.53,"drainage_score":0.66,"power_dependency":null,"current_status":"open","closure_reason":null,"estimated_repair_cost":1.24,"criticality_score":0.0,"threshold_bonus":-0.03},"geometry":{"type":"LineString","coordinates":[[73.4,18.755806],[73.400594,18.7605],[73.4,18.764995]]}},{"type":"Feature","id":"R-061","properties":{"id":"R-061","start_node_id":"N-41","end_node_id":"N-42","road_type":"local","name":"Road R-061","length_m":1130.4,"base_travel_time_minutes":4.521,"flood_susceptibility":0.583,"elevation_proxy":0.493,"drainage_score":0.722,"power_dependency":null,"current_status":"open","closure_reason":null,"estimated_repair_cost":1.36,"criticality_score":0.0,"threshold_bonus":-0.03},"geometry":{"type":"LineString","coordinates":[[73.411334,18.755319],[73.41575,18.755469],[73.422055,18.755836]]}},{"type":"Feature","id":"R-062","properties":{"id":"R-062","start_node_id":"N-42","end_node_id":"N-52","road_type":"bridge","name":"Bridge R-062","length_m":1122.7,"base_travel_time_minutes":2.694,"flood_susceptibility":0.964,"elevation_proxy":0.161,"drainage_score":0.44,"power_dependency":null,"current_status":"open","closure_reason":null,"estimated_repair_cost":7.86,"criticality_score":0.0,"threshold_bonus":0.12},"geometry":{"type":"LineString","coordinates":[[73.422055,18.755836],[73.421,18.7605],[73.420739,18.765821]]}},{"type":"Feature","id":"R-063","properties":{"id":"R-063","start_node_id":"N-43","end_node_id":"N-53","road_type":"local","name":"Road R-063","length_m":971.9,"base_travel_time_minutes":3.887,"flood_susceptibility":0.626,"elevation_proxy":0.456,"drainage_score":0.697,"power_dependency":null,"current_status":"open","closure_reason":null,"estimated_repair_cost":1.17,"criticality_score":0.0,"threshold_bonus":-0.03},"geometry":{"type":"LineString","coordinates":[[73.430399,18.756292],[73.431257,18.7605],[73.430334,18.764868]]}},{"type":"Feature","id":"R-064","properties":{"id":"R-064","start_node_id":"N-44","end_node_id":"N-45","road_type":"local","name":"Road R-064","length_m":1349.2,"base_travel_time_minutes":5.397,"flood_susceptibility":0.583,"elevation_proxy":0.493,"drainage_score":0.34,"power_dependency":null,"current_status":"open","closure_reason":null,"estimated_repair_cost":1.62,"criticality_score":0.0,"threshold_bonus":-0.03},"geometry":{"type":"LineString","coordinates":[[73.44095,18.756995],[73.44725,18.756298],[73.453717,18.756081]]}},{"type":"Feature","id":"R-065","properties":{"id":"R-065","start_node_id":"N-44","end_node_id":"N-54","road_type":"arterial","name":"Road R-065","length_m":919.0,"base_travel_time_minutes":1.575,"flood_susceptibility":0.442,"elevation_proxy":0.616,"drainage_score":0.53,"power_dependency":null,"current_status":"open","closure_reason":null,"estimated_repair_cost":3.68,"criticality_score":0.0,"threshold_bonus":0.05},"geometry":{"type":"LineString","coordinates":[[73.44095,18.756995],[73.442,18.7605],[73.442306,18.765112]]}},{"type":"Feature","id":"R-066","properties":{"id":"R-066","start_node_id":"N-45","end_node_id":"N-46","road_type":"local","name":"Road R-066","length_m":864.0,"base_travel_time_minutes":3.456,"flood_susceptibility":0.477,"elevation_proxy":0.585,"drainage_score":0.715,"power_dependency":null,"current_status":"open","closure_reason":null,"estimated_repair_cost":1.04,"criticality_score":0.0,"threshold_bonus":-0.03},"geometry":{"type":"LineString","coordinates":[[73.453717,18.756081],[73.45775,18.755865],[73.461894,18.75546]]}},{"type":"Feature","id":"R-067","properties":{"id":"R-067","start_node_id":"N-45","end_node_id":"N-55","road_type":"local","name":"Road R-067","length_m":1029.0,"base_travel_time_minutes":4.116,"flood_susceptibility":0.395,"elevation_proxy":0.657,"drainage_score":0.454,"power_dependency":null,"current_status":"open","closure_reason":null,"estimated_repair_cost":1.23,"criticality_score":0.0,"threshold_bonus":-0.03},"geometry":{"type":"LineString","coordinates":[[73.453717,18.756081],[73.451811,18.7605],[73.453253,18.764768]]}},{"type":"Feature","id":"R-068","properties":{"id":"R-068","start_node_id":"N-46","end_node_id":"N-56","road_type":"collector","name":"Road R-068","length_m":1057.6,"base_travel_time_minutes":2.538,"flood_susceptibility":0.418,"elevation_proxy":0.636,"drainage_score":0.353,"power_dependency":null,"current_status":"open","closure_reason":null,"estimated_repair_cost":2.64,"criticality_score":0.0,"threshold_bonus":0.0},"geometry":{"type":"LineString","coordinates":[[73.461894,18.75546],[73.463029,18.7605],[73.462699,18.764847]]}},{"type":"Feature","id":"R-069","properties":{"id":"R-069","start_node_id":"N-47","end_node_id":"N-48","road_type":"local","name":"Road R-069","length_m":1105.5,"base_travel_time_minutes":4.422,"flood_susceptibility":0.201,"elevation_proxy":0.825,"drainage_score":0.813,"power_dependency":null,"current_status":"open","closure_reason":null,"estimated_repair_cost":1.33,"criticality_score":0.0,"threshold_bonus":-0.03},"geometry":{"type":"LineString","coordinates":[[73.473526,18.757059],[73.47875,18.75657],[73.484,18.756532]]}},{"type":"Feature","id":"R-070","properties":{"id":"R-070","start_node_id":"N-47","end_node_id":"N-57","road_type":"local","name":"Road R-070","length_m":887.9,"base_travel_time_minutes":3.552,"flood_susceptibility":0.28,"elevation_proxy":0.756,"drainage_score":0.544,"power_dependency":null,"current_status":"open","closure_reason":null,"estimated_repair_cost":1.07,"criticality_score":0.0,"threshold_bonus":-0.03},"geometry":{"type":"LineString","coordinates":[[73.473526,18.757059],[73.473083,18.7605],[73.473457,18.765005]]}},{"type":"Feature","id":"R-071","properties":{"id":"R-071","start_node_id":"N-48","end_node_id":"N-58","road_type":"local","name":"Road R-071","length_m":1020.1,"base_travel_time_minutes":4.08,"flood_susceptibility":0.108,"elevation_proxy":0.906,"drainage_score":0.781,"power_dependency":null,"current_status":"open","closure_reason":null,"estimated_repair_cost":1.22,"criticality_score":0.0,"threshold_bonus":-0.03},"geometry":{"type":"LineString","coordinates":[[73.484,18.756532],[73.484061,18.7605],[73.484,18.765705]]}},{"type":"Feature","id":"R-072","properties":{"id":"R-072","start_node_id":"N-50","end_node_id":"N-60","road_type":"local","name":"Road R-072","length_m":1004.0,"base_travel_time_minutes":4.016,"flood_susceptibility":0.832,"elevation_proxy":0.277,"drainage_score":0.287,"power_dependency":null,"current_status":"open","closure_reason":null,"estimated_repair_cost":1.2,"criticality_score":0.0,"threshold_bonus":-0.03},"geometry":{"type":"LineString","coordinates":[[73.4,18.764995],[73.399649,18.7695],[73.4,18.774]]}},{"type":"Feature","id":"R-073","properties":{"id":"R-073","start_node_id":"N-51","end_node_id":"N-52","road_type":"collector","name":"Road R-073","length_m":1118.7,"base_travel_time_minutes":2.685,"flood_susceptibility":0.793,"elevation_proxy":0.31,"drainage_score":0.646,"power_dependency":null,"current_status":"open","closure_reason":null,"estimated_repair_cost":2.8,"criticality_score":0.0,"threshold_bonus":0.0},"geometry":{"type":"LineString","coordinates":[[73.410264,18.765905],[73.41575,18.76502],[73.420739,18.765821]]}},{"type":"Feature","id":"R-074","properties":{"id":"R-074","start_node_id":"N-51","end_node_id":"N-61","road_type":"local","name":"Road R-074","length_m":914.3,"base_travel_time_minutes":3.657,"flood_susceptibility":0.627,"elevation_proxy":0.454,"drainage_score":0.63,"power_dependency":null,"current_status":"open","closure_reason":null,"estimated_repair_cost":1.1,"criticality_score":0.0,"threshold_bonus":-0.03},"geometry":{"type":"LineString","coordinates":[[73.410264,18.765905],[73.410999,18.7695],[73.410218,18.774]]}},{"type":"Feature","id":"R-075","properties":{"id":"R-075","start_node_id":"N-52","end_node_id":"N-53","road_type":"collector","name":"Road R-075","length_m":1031.9,"base_travel_time_minutes":2.477,"flood_susceptibility":0.551,"elevation_proxy":0.521,"drainage_score":0.604,"power_dependency":null,"current_status":"open","closure_reason":null,"estimated_repair_cost":2.58,"criticality_score":0.0,"threshold_bonus":0.0},"geometry":{"type":"LineString","coordinates":[[73.420739,18.765821],[73.42625,18.764462],[73.430334,18.764868]]}},{"type":"Feature","id":"R-076","properties":{"id":"R-076","start_node_id":"N-52","end_node_id":"N-62","road_type":"collector","name":"Road R-076","length_m":922.8,"base_travel_time_minutes":2.215,"flood_susceptibility":0.466,"elevation_proxy":0.595,"drainage_score":0.52,"power_dependency":null,"current_status":"open","closure_reason":null,"estimated_repair_cost":2.31,"criticality_score":0.0,"threshold_bonus":0.0},"geometry":{"type":"LineString","coordinates":[[73.420739,18.765821],[73.420844,18.7695],[73.421942,18.774]]}},{"type":"Feature","id":"R-077","properties":{"id":"R-077","start_node_id":"N-53","end_node_id":"N-54","road_type":"collector","name":"Road R-077","length_m":1263.9,"base_travel_time_minutes":3.033,"flood_susceptibility":0.353,"elevation_proxy":0.693,"drainage_score":0.635,"power_dependency":null,"current_status":"open","closure_reason":null,"estimated_repair_cost":3.16,"criticality_score":0.0,"threshold_bonus":0.0},"geometry":{"type":"LineString","coordinates":[[73.430334,18.764868],[73.43675,18.764601],[73.442306,18.765112]]}},{"type":"Feature","id":"R-078","properties":{"id":"R-078","start_node_id":"N-54","end_node_id":"N-55","road_type":"collector","name":"Road R-078","length_m":1157.5,"base_travel_time_minutes":2.778,"flood_susceptibility":0.28,"elevation_proxy":0.756,"drainage_score":0.807,"power_dependency":null,"current_status":"open","closure_reason":null,"estimated_repair_cost":2.89,"criticality_score":0.0,"threshold_bonus":0.0},"geometry":{"type":"LineString","coordinates":[[73.442306,18.765112],[73.44725,18.765402],[73.453253,18.764768]]}},{"type":"Feature","id":"R-079","properties":{"id":"R-079","start_node_id":"N-54","end_node_id":"N-64","road_type":"arterial","name":"Road R-079","length_m":997.0,"base_travel_time_minutes":1.709,"flood_susceptibility":0.195,"elevation_proxy":0.83,"drainage_score":0.85,"power_dependency":null,"current_status":"open","closure_reason":null,"estimated_repair_cost":3.99,"criticality_score":0.0,"threshold_bonus":0.05},"geometry":{"type":"LineString","coordinates":[[73.442306,18.765112],[73.442,18.7695],[73.441166,18.774]]}},{"type":"Feature","id":"R-080","properties":{"id":"R-080","start_node_id":"N-55","end_node_id":"N-56","road_type":"collector","name":"Road R-080","length_m":997.6,"base_travel_time_minutes":2.394,"flood_susceptibility":0.378,"elevation_proxy":0.671,"drainage_score":0.427,"power_dependency":null,"current_status":"open","closure_reason":null,"estimated_repair_cost":2.49,"criticality_score":0.0,"threshold_bonus":0.0},"geometry":{"type":"LineString","coordinates":[[73.453253,18.764768],[73.45775,18.764458],[73.462699,18.764847]]}},{"type":"Feature","id":"R-081","properties":{"id":"R-081","start_node_id":"N-55","end_node_id":"N-65","road_type":"local","name":"Road R-081","length_m":1029.7,"base_travel_time_minutes":4.119,"flood_susceptibility":0.226,"elevation_proxy":0.804,"drainage_score":0.648,"power_dependency":null,"current_status":"open","closure_reason":null,"estimated_repair_cost":1.24,"criticality_score":0.0,"threshold_bonus":-0.03},"geometry":{"type":"LineString","coordinates":[[73.453253,18.764768],[73.452956,18.7695],[73.452508,18.774]]}},{"type":"Feature","id":"R-082","properties":{"id":"R-082","start_node_id":"N-56","end_node_id":"N-57","road_type":"collector","name":"Road R-082","length_m":1139.3,"base_travel_time_minutes":2.734,"flood_susceptibility":0.414,"elevation_proxy":0.64,"drainage_score":0.48,"power_dependency":null,"current_status":"open","closure_reason":null,"estimated_repair_cost":2.85,"criticality_score":0.0,"threshold_bonus":0.0},"geometry":{"type":"LineString","coordinates":[[73.462699,18.764847],[73.46825,18.765474],[73.473457,18.765005]]}},{"type":"Feature","id":"R-083","properties":{"id":"R-083","start_node_id":"N-56","end_node_id":"N-66","road_type":"collector","name":"Road R-083","length_m":1020.6,"base_travel_time_minutes":2.449,"flood_susceptibility":0.392,"elevation_proxy":0.659,"drainage_score":0.401,"power_dependency":null,"current_status":"open","closure_reason":null,"estimated_repair_cost":2.55,"criticality_score":0.0,"threshold_bonus":0.0},"geometry":{"type":"LineString","coordinates":[[73.462699,18.764847],[73.463146,18.7695],[73.4629,18.774]]}},{"type":"Feature","id":"R-084","properties":{"id":"R-084","start_node_id":"N-57","end_node_id":"N-58","road_type":"collector","name":"Road R-084","length_m":1132.3,"base_travel_time_minutes":2.717,"flood_susceptibility":0.169,"elevation_proxy":0.853,"drainage_score":0.824,"power_dependency":null,"current_status":"open","closure_reason":null,"estimated_repair_cost":2.83,"criticality_score":0.0,"threshold_bonus":0.0},"geometry":{"type":"LineString","coordinates":[[73.473457,18.765005],[73.47875,18.764413],[73.484,18.765705]]}},{"type":"Feature","id":"R-085","properties":{"id":"R-085","start_node_id":"N-57","end_node_id":"N-67","road_type":"local","name":"Road R-085","length_m":1035.1,"base_travel_time_minutes":4.141,"flood_susceptibility":0.269,"elevation_proxy":0.766,"drainage_score":0.434,"power_dependency":null,"current_status":"open","closure_reason":null,"estimated_repair_cost":1.24,"criticality_score":0.0,"threshold_bonus":-0.03},"geometry":{"type":"LineString","coordinates":[[73.473457,18.765005],[73.472902,18.7695],[73.474616,18.774]]}},{"type":"Feature","id":"R-086","properties":{"id":"R-086","start_node_id":"N-60","end_node_id":"N-61","road_type":"local","name":"Road R-086","length_m":1075.8,"base_travel_time_minutes":4.303,"flood_susceptibility":0.494,"elevation_proxy":0.571,"drainage_score":0.589,"power_dependency":null,"current_status":"open","closure_reason":null,"estimated_repair_cost":1.29,"criticality_score":0.0,"threshold_bonus":-0.03},"geometry":{"type":"LineString","coordinates":[[73.4,18.774],[73.40525,18.773939],[73.410218,18.774]]}},{"type":"Feature","id":"R-087","properties":{"id":"R-087","start_node_id":"N-63","end_node_id":"N-64","road_type":"local","name":"Road R-087","length_m":1017.3,"base_travel_time_minutes":4.069,"flood_susceptibility":0.163,"elevation_proxy":0.858,"drainage_score":0.609,"power_dependency":null,"current_status":"open","closure_reason":null,"estimated_repair_cost":1.22,"criticality_score":0.0,"threshold_bonus":-0.03},"geometry":{"type":"LineString","coordinates":[[73.431578,18.774],[73.43675,18.773434],[73.441166,18.774]]}},{"type":"Feature","id":"R-088","properties":{"id":"R-088","start_node_id":"N-64","end_node_id":"N-65","road_type":"local","name":"Road R-088","length_m":1196.1,"base_travel_time_minutes":4.784,"flood_susceptibility":0.117,"elevation_proxy":0.898,"drainage_score":0.638,"power_dependency":null,"current_status":"open","closure_reason":null,"estimated_repair_cost":1.44,"criticality_score":0.0,"threshold_bonus":-0.03},"geometry":{"type":"LineString","coordinates":[[73.441166,18.774],[73.44725,18.773688],[73.452508,18.774]]}},{"type":"Feature","id":"R-089","properties":{"id":"R-089","start_node_id":"N-65","end_node_id":"N-66","road_type":"local","name":"Road R-089","length_m":1097.0,"base_travel_time_minutes":4.388,"flood_susceptibility":0.204,"elevation_proxy":0.823,"drainage_score":0.536,"power_dependency":null,"current_status":"open","closure_reason":null,"estimated_repair_cost":1.32,"criticality_score":0.0,"threshold_bonus":-0.03},"geometry":{"type":"LineString","coordinates":[[73.452508,18.774],[73.45775,18.774361],[73.4629,18.774]]}},{"type":"Feature","id":"R-090","properties":{"id":"R-090","start_node_id":"N-66","end_node_id":"N-67","road_type":"local","name":"Road R-090","length_m":1234.7,"base_travel_time_minutes":4.939,"flood_susceptibility":0.255,"elevation_proxy":0.778,"drainage_score":0.694,"power_dependency":null,"current_status":"open","closure_reason":null,"estimated_repair_cost":1.48,"criticality_score":0.0,"threshold_bonus":-0.03},"geometry":{"type":"LineString","coordinates":[[73.4629,18.774],[73.46825,18.774251],[73.474616,18.774]]}},{"type":"Feature","id":"R-091","properties":{"id":"R-091","start_node_id":"N-67","end_node_id":"N-68","road_type":"local","name":"Road R-091","length_m":988.6,"base_travel_time_minutes":3.954,"flood_susceptibility":0.086,"elevation_proxy":0.925,"drainage_score":0.497,"power_dependency":null,"current_status":"open","closure_reason":null,"estimated_repair_cost":1.19,"criticality_score":0.0,"threshold_bonus":-0.03},"geometry":{"type":"LineString","coordinates":[[73.474616,18.774],[73.47875,18.774158],[73.484,18.774]]}}]}