{"type":"FeatureCollection","name":"staging","properties":{"synthetic":false,"modeled_attributes":true,"dataset_version":"kurla-mithi-osm-1.0","notice":"Real geography of Kurla / Mithi River, Mumbai (OpenStreetMap + SRTM). Populations, capacities, power links, pumps and resources are MODELED planning assumptions - not official BMC data, not a flood forecast.","license":"Roads, river, facilities and place names (c) OpenStreetMap contributors, ODbL 1.0. Terrain: SRTM 30 m (public domain)."},"features":[{"type":"Feature","id":"STG-1","properties":{"id":"STG-1","name":"Kurla Fire Station depot","node_id":"N-006"},"geometry":{"type":"Point","coordinates":[72.885935,19.08443]}},{"type":"Feature","id":"STG-2","properties":{"id":"STG-2","name":"L Ward office depot (S.G. Barve Marg)","node_id":"N-046"},"geometry":{"type":"Point","coordinates":[72.883,19.0705]}},{"type":"Feature","id":"STG-3","properties":{"id":"STG-3","name":"Tilak Nagar depot","node_id":"N-056"},"geometry":{"type":"Point","coordinates":[72.8935,19.068]}},{"type":"Feature","id":"STG-4","properties":{"id":"STG-4","name":"Kalina depot","node_id":"N-021"},"geometry":{"type":"Point","coordinates":[72.864,19.076]}},{"type":"Feature","id":"STG-5","properties":{"id":"STG-5","name":"LTT / Nehru Nagar depot","node_id":"N-056"},"geometry":{"type":"Point","coordinates":[72.891978,19.069466]}}]}