{"type":"FeatureCollection","name":"population_zones","properties":{"synthetic":true,"dataset_version":"sahyadri-synthetic-1.0","notice":"Synthetic demonstration data. Not official or real."},"features":[{"type":"Feature","id":"Z-01","properties":{"id":"Z-01","name":"Lake Basin Colony","estimated_population":9800,"vulnerability_weight":1.25,"mobility_constraint_factor":1.1,"anchor_node_id":"N-11","bbox_grid":[0,0,2,3],"nearest_facility_ids":[]},"geometry":{"type":"Polygon","coordinates":[[[73.400315,18.72027],[73.420685,18.72027],[73.420685,18.74673],[73.400315,18.74673],[73.400315,18.72027]]]}},{"type":"Feature","id":"Z-02","properties":{"id":"Z-02","name":"Old Town","estimated_population":13500,"vulnerability_weight":1.1,"mobility_constraint_factor":1.2,"anchor_node_id":"N-13","bbox_grid":[2,0,4,3],"nearest_facility_ids":[]},"geometry":{"type":"Polygon","coordinates":[[[73.421315,18.72027],[73.441685,18.72027],[73.441685,18.74673],[73.421315,18.74673],[73.421315,18.72027]]]}},{"type":"Feature","id":"Z-03","properties":{"id":"Z-03","name":"Canal Ward","estimated_population":8600,"vulnerability_weight":1.0,"mobility_constraint_factor":1.0,"anchor_node_id":"N-15","bbox_grid":[4,0,6,3],"nearest_facility_ids":[]},"geometry":{"type":"Polygon","coordinates":[[[73.442315,18.72027],[73.462685,18.72027],[73.462685,18.74673],[73.442315,18.74673],[73.442315,18.72027]]]}},{"type":"Feature","id":"Z-04","properties":{"id":"Z-04","name":"Eastgate Village","estimated_population":7200,"vulnerability_weight":1.15,"mobility_constraint_factor":1.1,"anchor_node_id":"N-27","bbox_grid":[6,0,8,3],"nearest_facility_ids":[]},"geometry":{"type":"Polygon","coordinates":[[[73.463315,18.72027],[73.483685,18.72027],[73.483685,18.74673],[73.463315,18.74673],[73.463315,18.72027]]]}},{"type":"Feature","id":"Z-05","properties":{"id":"Z-05","name":"West Ridge","estimated_population":6400,"vulnerability_weight":0.95,"mobility_constraint_factor":1.0,"anchor_node_id":"N-51","bbox_grid":[0,3,2,6],"nearest_facility_ids":[]},"geometry":{"type":"Polygon","coordinates":[[[73.400315,18.74727],[73.420685,18.74727],[73.420685,18.77373],[73.400315,18.77373],[73.400315,18.74727]]]}},{"type":"Feature","id":"Z-06","properties":{"id":"Z-06","name":"Riverside Colony","estimated_population":11200,"vulnerability_weight":1.35,"mobility_constraint_factor":1.25,"anchor_node_id":"N-43","bbox_grid":[2,3,4,6],"nearest_facility_ids":[]},"geometry":{"type":"Polygon","coordinates":[[[73.421315,18.74727],[73.441685,18.74727],[73.441685,18.77373],[73.421315,18.77373],[73.421315,18.74727]]]}},{"type":"Feature","id":"Z-07","properties":{"id":"Z-07","name":"Hilltop Residential","estimated_population":7800,"vulnerability_weight":0.85,"mobility_constraint_factor":0.95,"anchor_node_id":"N-54","bbox_grid":[4,3,6,6],"nearest_facility_ids":[]},"geometry":{"type":"Polygon","coordinates":[[[73.442315,18.74727],[73.462685,18.74727],[73.462685,18.77373],[73.442315,18.77373],[73.442315,18.74727]]]}},{"type":"Feature","id":"Z-08","properties":{"id":"Z-08","name":"Hillview Hamlet","estimated_population":5600,"vulnerability_weight":1.05,"mobility_constraint_factor":1.15,"anchor_node_id":"N-56","bbox_grid":[6,3,8,6],"nearest_facility_ids":[]},"geometry":{"type":"Polygon","coordinates":[[[73.463315,18.74727],[73.483685,18.74727],[73.483685,18.77373],[73.463315,18.77373],[73.463315,18.74727]]]}}]}